"site","agency","site_name","lat","lon","district","state","county","altitude","huc","drain_area"
"01013500","USGS","Fish River near Fort Kent, Maine",47.2375,-68.58277778,"23","23","003",511.38,"01010003",873
"01021470","USGS","Libby Brook near Northfield, Maine",44.8008333,-67.725,"23","23","029",133.16,"01050002",7.79
"01021480","USGS","Old Stream near Wesley, Maine",44.9369444,-67.7361111,"23","23","029",170,"01050002",29.1
"01022260","USGS","Pleasant River near Epping, Maine",44.69777778,-67.7872222,"23","23","029",127.02,"01050002",60.6
"01022500","USGS","Narraguagus River at Cherryfield, Maine",44.60805556,-67.93527778,"23","23","029",44.2,"01050002",227
"01027200","USGS","North Branch Penobscot River nr Pittston Farm, ME",45.93527778,-69.9936111,"23","23","025",1086.2,"01020001",232
"01029200","USGS","Seboeis River near Shin Pond, Maine",46.14305556,-68.6336111,"23","23","019",512,"01020002",173
"01030500","USGS","Mattawamkeag River near Mattawamkeag, Maine",45.5011111,-68.3058333,"23","23","019",217,"01020003",1418
"01031300","USGS","Piscataquis River at Blanchard, Maine",45.2672222,-69.58388889,"23","23","021",564.09,"01020004",118
"01031500","USGS","Piscataquis River near Dover-Foxcroft, Maine",45.175,-69.3147222,"23","23","021",358.47,"01020004",298
"01037380","USGS","Ducktrap River near Lincolnville, Maine",44.32916667,-69.0608333,"23","23","027",135,"01050002",14.4
"01044550","USGS","Spencer Stream near Grand Falls, Maine",45.3136111,-70.2416667,"23","23","025",1020,"01030002",193
"01046000","USGS","Austin Stream at Bingham, Maine",45.0644444,-69.8805556,"23","23","025",350.14,"01030003",90
"01047000","USGS","Carrabassett River near North Anson, Maine",44.86916667,-69.955,"23","23","025",303.3,"01030003",353
"01054200","USGS","Wild River at Gilead, Maine",44.39055556,-70.9797222,"23","23","017",683.1,"01040002",69.6
"01054300","USGS","Ellis River at South Andover, Maine",44.5933333,-70.7330556,"23","23","017",620,"01040002",130
"01055000","USGS","Swift River near Roxbury, Maine",44.64277778,-70.58888889,"23","23","017",615.67,"01040002",96.9
"01057000","USGS","Little Androscoggin River near South Paris, Maine",44.30388889,-70.5397222,"23","23","017",447,"01040002",73.5
"01064801","USGS","BEARCAMP RIVER AT SOUTH TAMWORTH, NH",43.83007396,-71.2878488,"33","33","003",493.37,"01060002",67.6
"01073000","USGS","OYSTER RIVER NEAR DURHAM, NH",43.1486955,-70.9650603,"33","33","017",65.29,"01060003",12.1
"01074520","USGS","EAST BRANCH PEMIGEWASSET RIVER AT LINCOLN, NH",44.0475669,-71.6598029,"33","33","009",821.03,"01070001",115
"01075800","USGS","STEVENS BROOK NEAR WENTWORTH, NH",43.8361811,-71.8853606,"33","33","009",605,"01070001",2.94
"01078000","USGS","SMITH RIVER NEAR BRISTOL, NH",43.56646307,-71.747857,"33","33","013",449.8,"01070001",85.8
"01085800","USGS","WEST BRANCH WARNER RIVER NEAR BRADFORD, NH",43.25924316,-72.0259169,"33","33","013",935,"01070003",5.75
"01086000","USGS","WARNER RIVER AT DAVISVILLE, NH",43.25091159,-71.7322996,"33","33","013",379.96,"01070003",146
"01091000","USGS","SOUTH BRANCH PISCATAQUOG RIVER NEAR GOFFSTOWN, NH",43.01480519,-71.64146129,"33","33","011",308.95,"01070002",104
"01115630","USGS","NOOSENECK RIVER AT NOOSENECK, RI",41.6267667,-71.6325646,"25","44","003",264.17,"01090004",8.23
"01117370","USGS","QUEEN R AT LIBERTY RD AT LIBERTY RI",41.53898957,-71.568673,"25","44","009",119.12,"01090005",19.6
"01117800","USGS","WOOD RIVER NEAR ARCADIA, RI",41.5739884,-71.72062318,"25","44","009",117.35,"01090005",35.2
"01123000","USGS","LITTLE RIVER NEAR HANOVER, CT",41.6717651,-72.05229807,"09","09","015",221.19,"01100002",30
"01130000","USGS","UPPER AMMONOOSUC RIVER NEAR GROVETON, NH",44.62505316,-71.4689721,"33","33","007",916.43,"01080101",232
"01134500","USGS","MOOSE RIVER AT VICTORY, VT",44.5117231,-71.8373143,"33","50","009",1103.99,"01080102",75.2
"01135300","USGS","SLEEPERS RIVER (SITE W-5) NEAR ST. JOHNSBURY, VT",44.4353353,-72.03842899,"33","50","005",641.68,"01080102",42.9
"01137500","USGS","AMMONOOSUC RIVER AT BETHLEHEM JUNCTION, NH",44.2686741,-71.6303617,"33","33","009",1180.74,"01080101",87.6
"01139000","USGS","WELLS RIVER AT WELLS RIVER, VT",44.1503413,-72.0650915,"33","50","017",505.53,"01080103",98.4
"01139800","USGS","EAST ORANGE BRANCH AT EAST ORANGE, VT",44.0928419,-72.33565327,"33","50","017",1180,"01080103",8.95
"01142500","USGS","AYERS BROOK AT RANDOLPH, VT",43.93450969,-72.6578821,"33","50","017",630.5,"01080105",30.5
"01144000","USGS","WHITE RIVER AT WEST HARTFORD, VT",43.71423614,-72.418149,"33","50","027",374.53,"01080105",690
"01150900","USGS","OTTAUQUECHEE RIVER NEAR WEST BRIDGEWATER, VT",43.62229069,-72.7589899,"33","50","021",1148.59,"01080106",23.4
"01154000","USGS","SAXTONS RIVER AT SAXTONS RIVER, VT",43.13757777,-72.4881444,"33","50","025",395.51,"01080107",72.2
"01169000","USGS","NORTH RIVER AT SHATTUCKVILLE, MA",42.63841775,-72.7250922,"25","25","011",457.86,"01080203",89
"01170100","USGS","GREEN RIVER NEAR COLRAIN, MA",42.70341695,-72.67064738,"25","25","011",434.51,"01080203",41.4
"01174565","USGS","WEST BRANCH SWIFT RIVER NEAR SHUTESBURY, MA",42.45508906,-72.3817516,"25","25","011",539.44,"01080204",12.6
"01174900","USGS","CADWELL CREEK NEAR BELCHERTOWN, MA",42.3356465,-72.36952828,"25","25","015",540,"01080204",2.55
"01181000","USGS","WEST BRANCH WESTFIELD RIVER AT HUNTINGTON, MA",42.23731169,-72.895654,"25","25","015",382.94,"01080206",94
"01187300","USGS","HUBBARD RIVER NEAR WEST HARTLAND, CT",42.0375,-72.93932778,"09","09","003",594.57,"01080207",19.9
"01188000","USGS","BUNNELL BROOK NEAR BURLINGTON, CT",41.786209,-72.9648261,"09","09","003",714,"01080207",4.1
"01193500","USGS","SALMON RIVER NEAR EAST HAMPTON, CT",41.55232124,-72.44925287,"09","09","007",64.38,"01080205",100
"01194000","USGS","EIGHTMILE RIVER AT NORTH PLAIN, CT",41.44166944,-72.33267778,"09","09","007",56.23,"01080205",20.1
"01194500","USGS","EAST BRANCH EIGHTMILE RIVER NEAR NORTH LYME, CT",41.42751667,-72.33477778,"09","09","011",53.97,"01080205",22.3
"01195100","USGS","INDIAN RIVER NEAR CLINTON, CT",41.3061722,-72.5310333,"09","09","007",34.81,"01100004",5.68
"01198000","USGS","GREEN RIVER NEAR GREAT BARRINGTON, MA",42.1929083,-73.3912306,"25","25","003",689.35,"01100005",51
"01203805","USGS","WEEKEEPEEMEE RIVER AT HOTCHKISSVILLE, CT",41.5577083,-73.21535278,"09","09","005",249.55,"01100005",26.8
"01208950","USGS","SASCO BROOK NEAR SOUTHPORT, CT",41.15287436,-73.3059495,"09","09","001",52.01,"01100006",7.38
"01208990","USGS","SAUGATUCK RIVER NEAR REDDING, CT",41.29454,-73.39512029,"09","09","001",285.42,"01100006",21
"01333000","USGS","GREEN RIVER AT WILLIAMSTOWN, MA",42.7089695,-73.1967729,"25","25","003",613,"02020003",42.6
"01333500","USGS","LITTLE HOOSIC RIVER AT PETERSBURG NY",42.76388889,-73.3372222,"36","36","083",587.4,"02020003",56.1
"01343060","USGS","WEST CANADA CREEK NEAR WILMURT NY",43.3661111,-74.95777778,"36","36","043",1257.97,"02020004",238
"01350000","USGS","SCHOHARIE CREEK AT PRATTSVILLE NY",42.31944444,-74.4366667,"36","36","039",1131.13,"02020005",237
"01350080","USGS","MANOR KILL AT WEST CONESVILLE NEAR GILBOA NY",42.37694444,-74.4130556,"36","36","095",1254.63,"02020005",32.4
"01350140","USGS","MINE KILL NEAR NORTH BLENHEIM NY",42.42888889,-74.4730556,"36","36","095",1060.13,"02020005",16.2
"01362198","USGS","ESOPUS CREEK AT SHANDAKEN NY",42.11647855,-74.38848279,"36","36","111",1017.27,"02020006",59.5
"01362497","USGS","LITTLE BEAVER KILL AT BEECHFORD NEAR MT TREMPER NY",42.01944444,-74.26638889,"36","36","111",658.36,"02020006",16.5
"01363382","USGS","BUSH KILL BLW MALTBY HOLLOW BK AT WEST SHOKAN NY",41.96555556,-74.2930556,"36","36","111",682.34,"02020006",16.2
"01365000","USGS","RONDOUT CREEK NEAR LOWES CORNERS NY",41.86638889,-74.4872222,"36","36","105",874.68,"02020007",38.3
"01409810","USGS","West Branch Wading River near Jenkins NJ",39.68805556,-74.5480556,"34","34","005",10.17,"02040301",84.1
"01411300","USGS","Tuckahoe River at Head of River NJ",39.30694444,-74.8205556,"34","34","009",0,"02040302",30.8
"01413408","USGS","DRY BROOK AT ARKVILLE",42.14666667,-74.6233333,"36","36","025",1335.67,"02040102",82.2
"01413500","USGS","EAST BRANCH DELAWARE RIVER AT MARGARETVILLE NY",42.1447222,-74.6536111,"36","36","025",1301.67,"02040102",163
"01414000","USGS","PLATTE KILL AT DUNRAVEN NY",42.13305556,-74.6955556,"36","36","025",1293.72,"02040102",34.9
"01414500","USGS","MILL BROOK NEAR DUNRAVEN NY",42.1061111,-74.7305556,"36","36","025",1297.22,"02040102",25.2
"01415000","USGS","TREMPER KILL NEAR ANDES NY",42.12,-74.8186111,"36","36","025",1285.2,"02040102",33.2
"01421618","USGS","TOWN BROOK SOUTHEAST OF HOBART NY",42.3611111,-74.6622222,"36","36","025",1658.43,"02040101",14.3
"01422500","USGS","LITTLE DELAWARE RIVER NEAR DELHI NY",42.2522222,-74.9016667,"36","36","025",1384.77,"02040101",49.8
"01422747","USGS","EAST BROOK EAST OF WALTON NY",42.17266667,-75.1219167,"36","36","025",NA,"02040101",24.7
"01423000","USGS","WEST BRANCH DELAWARE RIVER AT WALTON NY",42.1661111,-75.14002778,"36","36","025",1189.88,"02040101",332
"01434025","USGS","BISCUIT BK ABOVE PIGEON BK AT FROST VALLEY NY",41.9960833,-74.5002222,"36","36","111",2083.02,"02040104",3.72
"01439500","USGS","Bush Kill at Shoemakers, PA",41.08815078,-75.03767469,"42","42","089",421.13,"02040104",117
"01440000","USGS","Flat Brook near Flatbrookville NJ",41.1061111,-74.9525,"34","34","037",347.73,"02040104",64
"01440400","USGS","Brodhead Creek near Analomink, PA",41.0848148,-75.2146251,"42","42","089",586.5,"02040104",65.9
"01451800","USGS","Jordan Creek near Schnecksville, PA",40.66176219,-75.626854,"42","42","077",381.16,"02040106",53
"01466500","USGS","McDonalds Branch in Byrne State Forest NJ",39.885,-74.50527778,"34","34","005",117.73,"02040202",2.35
"01471875","USGS","Manatawny Creek near Spangsville, PA",40.339538,-75.7421359,"42","42","011",265,"02040203",56.9
"01484000","USGS","MURDERKILL RIVER NEAR FELTON, DE",38.97602778,-75.5669167,"24","10","001",21.09,"02040207",12.9
"01485500","USGS","NASSAWANGO CREEK NEAR SNOW HILL, MD",38.22891667,-75.4714444,"24","24","047",11.49,"02080111",44.9
"01487000","USGS","NANTICOKE RIVER NEAR BRIDGEVILLE, DE",38.7283333,-75.5618611,"24","10","005",12.82,"02080109",75.4
"01490000","USGS","CHICAMACOMICO RIVER NEAR SALEM, MD",38.51166667,-75.8799167,"24","24","019",2.88,"02080110",15
"01491000","USGS","CHOPTANK RIVER NEAR GREENSBORO, MD",38.99719444,-75.7858056,"24","24","011",2.73,"02060005",113
"01492500","USGS","SALLIE HARRIS CREEK NEAR CARMICHAEL, MD",38.96488889,-76.1088333,"24","24","035",5.22,"02060002",8.09
"01493500","USGS","MORGAN CREEK NEAR KENNEDYVILLE, MD",39.28002778,-76.0145556,"24","24","029",0.97,"02060002",12.7
"01502000","USGS","BUTTERNUT CREEK AT MORRIS NY",42.54527778,-75.2391667,"36","36","077",1096.21,"02050101",59.7
"01502500","USGS","UNADILLA RIVER AT ROCKDALE NY",42.37777778,-75.4061111,"36","36","017",992.25,"02050101",520
"01510000","USGS","OTSELIC RIVER AT CINCINNATUS NY",42.5411111,-75.8997222,"36","36","023",1031.11,"02050102",147
"01516500","USGS","Corey Creek near Mainesburg, PA",41.79090746,-77.0146877,"42","42","117",1337.5,"02050104",12.2
"01518862","USGS","Cowanesque River at Westfield, PA",41.92312576,-77.5319298,"42","42","117",1337.58,"02050104",90.6
"01525981","USGS","TUSCARORA CREEK ABOVE SOUTH ADDISON NY",42.0722222,-77.29888889,"36","36","101",1078.45,"02050104",102
"01527500","USGS","COHOCTON RIVER AT AVOCA NY",42.41105556,-77.4263611,"36","36","101",1182.31,"02050105",152
"01528000","USGS","FIVEMILE CREEK NEAR KANONA NY",42.3883333,-77.35777778,"36","36","101",1170.3,"02050105",66.8
"01532000","USGS","Towanda Creek near Monroeton, PA",41.70757505,-76.4849432,"42","42","015",765.53,"02050106",215
"01539000","USGS","Fishing Creek near Bloomsburg, PA",41.07814118,-76.4313333,"42","42","037",543.84,"02050107",274
"01542810","USGS","Waldy Run near Emporium, PA",41.57895225,-78.2925121,"42","42","023",1263.62,"02050202",5.24
"01543000","USGS","Driftwood Br Sinnemahoning Cr at Sterling Run, PA",41.4133959,-78.1969524,"42","42","023",894.84,"02050202",272
"01543500","USGS","Sinnemahoning Creek at Sinnemahoning, PA",41.31728467,-78.1030596,"42","42","023",769.36,"02050202",685
"01544500","USGS","Kettle Creek at Cross Fork, PA",41.4758994,-77.8258251,"42","42","035",1027.12,"02050203",136
"01545600","USGS","Young Womans Creek near Renovo, PA",41.38951168,-77.6908191,"42","42","035",780.41,"02050203",46.2
"01547700","USGS","Marsh Creek at Blanchard, PA",41.05950916,-77.6058264,"42","42","027",586.16,"02050204",44.1
"01548500","USGS","Pine Creek at Cedar Run, PA",41.52173586,-77.4474798,"42","42","081",780.36,"02050205",604
"01549500","USGS","Blockhouse Creek near English Center, PA",41.47368336,-77.230809,"42","42","081",1041.85,"02050205",37.7
"01550000","USGS","Lycoming Creek near Trout Run, PA",41.41813179,-77.0330238,"42","42","081",693.95,"02050206",173
"01552000","USGS","Loyalsock Creek at Loyalsockville, PA",41.32507836,-76.91246379,"42","42","081",586.33,"02050206",435
"01552500","USGS","Muncy Creek near Sonestown, PA",41.35702418,-76.5346708,"42","42","113",1025.01,"02050206",23.8
"01557500","USGS","Bald Eagle Creek at Tyrone, PA",40.6836733,-78.23362439,"42","42","013",921.8,"02050302",44.1
"01566000","USGS","Tuscarora Creek near Port Royal, PA",40.5153564,-77.41915568,"42","42","067",420.47,"02050304",214
"01567500","USGS","Bixler Run near Loysville, PA",40.37091615,-77.402209,"42","42","099",601.22,"02050305",15
"01568000","USGS","Sherman Creek at Shermans Dale, PA",40.32341928,-77.1688703,"42","42","099",422.63,"02050305",207
"01572950","USGS","Indiantown Run near Harper Tavern, PA",40.43897778,-76.59829919,"42","42","075",NA,"02050305",5.48
"01580000","USGS","DEER CREEK AT ROCKS, MD",39.6299722,-76.4033056,"24","24","025",249.6,"02050306",94.4
"01581810","USGS","GUNPOWDER FALLS AT HOFFMANVILLE, MD",39.68980556,-76.7814722,"24","24","005",543.6,"02060003",27
"01581830","USGS","GRAVE RUN NEAR BECKLEYSVILLE, MD",39.65480556,-76.7809167,"24","24","005",525.34,"02060003",7.68
"01581870","USGS","GEORGES RUN NEAR BECKLEYSVILLE, MD",39.62569444,-76.7726111,"24","24","005",520.06,"02060003",15.8
"01581960","USGS","BEETREE RUN AT BENTLEY SPRINGS, MD",39.673,-76.6749722,"24","24","005",486.1,"02060003",9.72
"01583500","USGS","WESTERN RUN AT WESTERN RUN, MD",39.51077778,-76.6765,"24","24","005",262.08,"02060003",59.8
"01586610","USGS","MORGAN RUN NEAR LOUISVILLE, MD",39.45188889,-76.9553056,"24","24","013",422,"02060003",28
"01591400","USGS","CATTAIL CREEK NEAR GLENWOOD, MD",39.2559722,-77.0510556,"24","24","027",374.44,"02060006",22.9
"01594936","USGS","NORTH FORK SAND RUN NEAR WILSON, MD",39.26030556,-79.4097778,"24","24","023",2515,"02070002",1.91
"01594950","USGS","MCMILLAN F NEAR FORT PENDLETON, MD",39.27669444,-79.3903056,"24","24","023",2441.53,"02070002",2.3
"01596500","USGS","SAVAGE RIVER NEAR BARTON, MD",39.57005556,-79.1019444,"24","24","023",1603.44,"02070002",49.1
"01601000","USGS","Wills Creek below Hyndman, PA",39.81202897,-78.7164072,"42","42","009",893.37,"02070002",146
"01605500","USGS","SOUTH BRANCH POTOMAC RIVER AT FRANKLIN, WV",38.63567247,-79.3378199,"54","54","071",1692.1,"02070001",179
"01606000","USGS","N F SOUTH BRANCH POTOMAC RIVER AT CABINS, WV",38.9845546,-79.2336508,"54","54","023",1045.42,"02070001",310
"01606500","USGS","SOUTH BRANCH POTOMAC RIVER NEAR PETERSBURG, WV",38.99122107,-79.17587059,"54","54","023",965.88,"02070001",651
"01609000","USGS","TOWN CREEK NEAR OLDTOWN, MD",39.5532222,-78.555,"24","24","001",547.3,"02070003",148
"01610155","USGS","SIDELING HILL CREEK NEAR BELLEGROVE, MD",39.64952778,-78.34413889,"24","24","043",439.74,"02070003",102
"01611500","USGS","CACAPON RIVER NEAR GREAT CACAPON, WV",39.5823158,-78.3097312,"54","54","065",456.6,"02070003",675
"01613050","USGS","Tonoloway Creek near Needmore, PA",39.89842119,-78.132229,"42","42","057",688.94,"02070004",10.7
"01613900","USGS","HOGUE CREEK NEAR HAYFIELD, VA",39.2145479,-78.2880592,"51","51","069",668.6,"02070004",15.9
"01614000","USGS","Back Creek near Jones Springs, WV",39.51204187,-78.0372224,"54","54","003",416.42,"02070004",235
"01632000","USGS","N F SHENANDOAH RIVER AT COOTES STORE, VA",38.63706254,-78.852803,"51","51","165",1050.68,"02070006",210
"01632900","USGS","SMITH CREEK NEAR NEW MARKET, VA",38.69345016,-78.6427935,"51","51","171",880.84,"02070006",93.6
"01634500","USGS","CEDAR CREEK NEAR WINCHESTER, VA",39.0812176,-78.3294486,"51","51","069",647.09,"02070006",102
"01635090","USGS","CEDAR CREEK ABOVE HWY 11 NEAR MIDDLETOWN, VA",39.00677495,-78.3163924,"51","51","187",600,"02070006",154
"01636690","USGS","PINEY RUN NEAR LOVETTSVILLE, VA",39.3108333,-77.7185,"51","51","107",397.07,"02070008",13.5
"01638480","USGS","CATOCTIN CREEK AT TAYLORSTOWN, VA",39.25510206,-77.5763778,"51","51","107",247.37,"02070008",89.5
"01639500","USGS","BIG PIPE CREEK AT BRUCEVILLE, MD",39.6123611,-77.2374444,"24","24","013",336.21,"02070009",102
"01643700","USGS","GOOSE CREEK NEAR MIDDLEBURG, VA",38.98649818,-77.7966614,"51","51","107",327.49,"02070008",122
"01644000","USGS","GOOSE CREEK NEAR LEESBURG, VA",39.01955309,-77.5774918,"51","51","107",248.93,"02070008",332
"01659000","USGS","N BRANCH CHOPAWAMSIC CR NR INDEPENDENT HILL, VA",38.56512118,-77.4258175,"51","51","153",216.43,"02070011",5.69
"01659500","USGS","M BRANCH CHOPAWAMSIC CREEK NR GARRISONVILLE, VA",38.55734365,-77.4252618,"51","51","179",192.97,"02070011",4.46
"01661050","USGS","ST CLEMENTS CREEK NEAR CLEMENTS, MD",38.33330556,-76.725,"24","24","037",5.45,"02070011",18.5
"01662800","USGS","BATTLE RUN NEAR LAUREL MILLS, VA",38.65567564,-78.0738869,"51","51","157",374.62,"02080103",25.8
"01663500","USGS","HAZEL RIVER AT RIXEYVILLE, VA",38.59178867,-77.9649962,"51","51","047",287.74,"02080103",285
"01664000","USGS","RAPPAHANNOCK RIVER AT REMINGTON, VA",38.53067996,-77.8136045,"51","51","061",251.6,"02080103",619
"01665500","USGS","RAPIDAN RIVER NEAR RUCKERSVILLE, VA",38.28068606,-78.340007,"51","51","113",439.44,"02080103",115
"01666500","USGS","ROBINSON RIVER NEAR LOCUST DALE, VA",38.32513047,-78.0955557,"51","51","113",283.7,"02080103",179
"01667500","USGS","RAPIDAN RIVER NEAR CULPEPER, VA",38.35040774,-77.9749972,"51","51","047",241.36,"02080103",468
"01669000","USGS","PISCATAWAY CREEK NEAR TAPPAHANNOCK, VA",37.8770819,-76.900521,"51","51","057",0.5,"02080104",27.9
"01669520","USGS","DRAGON SWAMP AT MASCOT, VA",37.6337529,-76.6963468,"51","51","097",21.6,"02080102",109
"01673638","USGS","COHOKE MILL CREEK NEAR LESTER MANOR, VA",37.6268101,-76.962467,"51","51","101",40,"02080106",8.81
"02011400","USGS","JACKSON RIVER NEAR BACOVA, VA",38.04234707,-79.8814439,"51","51","017",1639.07,"02080201",157
"02013000","USGS","DUNLAP CREEK NEAR COVINGTON, VA",37.8029022,-80.0470043,"51","51","005",1294.29,"02080201",162
"02014000","USGS","POTTS CREEK NEAR COVINGTON, VA",37.72901408,-80.0422802,"51","51","005",1273.48,"02080201",153
"02015700","USGS","BULLPASTURE RIVER AT WILLIAMSVILLE, VA",38.19540308,-79.57032338,"51","51","017",1610.14,"02080201",110
"02016000","USGS","COWPASTURE RIVER NEAR CLIFTON FORGE, VA",37.79179587,-79.7594917,"51","51","005",1007.02,"02080201",461
"02017500","USGS","JOHNS CREEK AT NEW CASTLE, VA",37.5062397,-80.106715,"51","51","045",1254.3,"02080201",105
"02018000","USGS","CRAIG CREEK AT PARR, VA",37.66596174,-79.9114388,"51","51","023",992.17,"02080201",329
"02024915","USGS","PEDLAR RIVER AT FOREST ROAD NEAR BUENA VISTA, VA",37.6975,-79.2783333,"51","51","009",1135,"02080203",27.1
"02027000","USGS","TYE RIVER NEAR LOVINGSTON, VA",37.71541868,-78.981691,"51","51","125",575.39,"02080203",93
"02027500","USGS","PINEY RIVER AT PINEY RIVER, VA",37.7023625,-79.0275254,"51","51","125",631.58,"02080203",47.7
"02028500","USGS","ROCKFISH RIVER NEAR GREENFIELD, VA",37.86958499,-78.8233543,"51","51","125",532.29,"02080203",94.8
"02030500","USGS","SLATE RIVER NEAR ARVONIA, VA",37.70292198,-78.37750429,"51","51","029",238.78,"02080203",226
"02032640","USGS","N F RIVANNA RIVER NEAR EARLYSVILLE, VA",38.1634674,-78.4247323,"51","51","003",365,"02080204",108
"02038850","USGS","HOLIDAY CREEK NEAR ANDERSONVILLE, VA",37.41542434,-78.6358392,"51","51","029",472.1,"02080207",8.54
"02043500","USGS","CYPRESS SWAMP AT CYPRESS CHAPEL, VA",36.6234846,-76.6016182,"51","51","800",28.65,"03010205",23.6
"02046000","USGS","STONY CREEK NEAR DINWIDDIE, VA",37.0670942,-77.602489,"51","51","053",129.94,"03010201",113
"02051000","USGS","NORTH MEHERRIN RIVER NEAR LUNENBURG, VA",36.9973738,-78.3497182,"51","51","111",333.7,"03010204",56
"02051500","USGS","MEHERRIN RIVER NEAR LAWRENCEVILLE, VA",36.71681395,-77.8316582,"51","51","025",136.56,"03010204",552
"02052500","USGS","FOUNTAINS CREEK NEAR BRINK, VA",36.6154269,-77.699707,"51","51","081",152.59,"03010204",68.7
"02053200","USGS","POTECASI CREEK NEAR UNION, NC",36.3708333,-77.0255556,"37","37","091",3.53,"03010204",225
"02053800","USGS","S F ROANOKE RIVER NEAR SHAWSVILLE, VA",37.1401323,-80.2664328,"51","51","121",1361.87,"03010101",109
"02055100","USGS","TINKER CREEK NEAR DALEVILLE, VA",37.41763318,-79.9353193,"51","51","023",1216.8,"03010101",11.7
"02056900","USGS","BLACKWATER RIVER NEAR ROCKY MOUNT, VA",37.0451406,-79.8441993,"51","51","067",876.45,"03010101",115
"02059500","USGS","GOOSE CREEK NEAR HUDDLESTON, VA",37.1731995,-79.5203076,"51","51","019",592.91,"03010101",188
"02061000","USGS","BIG OTTER RIVER NEAR BEDFORD, VA",37.36403026,-79.41919689,"51","51","019",670.43,"03010101",114
"02064000","USGS","FALLING RIVER NEAR NARUNA, VA",37.12680956,-78.9597374,"51","51","031",412.32,"03010102",165
"02065500","USGS","CUB CREEK AT PHENIX, VA",37.0793112,-78.7636178,"51","51","037",370.19,"03010102",97.6
"02069700","USGS","SOUTH MAYO RIVER NEAR NETTLERIDGE, VA",36.570971,-80.1294928,"51","51","141",871.6,"03010103",85.5
"02070000","USGS","NORTH MAYO RIVER NEAR SPENCER, VA",36.56819358,-79.98726539,"51","51","089",730.94,"03010103",108
"02070500","USGS","MAYO RIVER NEAR PRICE, NC",36.53388889,-79.99138889,"37","37","157",689.95,"03010103",242
"02074500","USGS","SANDY RIVER NEAR DANVILLE, VA",36.6195825,-79.5041932,"51","51","143",460.38,"03010103",111
"02077200","USGS","HYCO CREEK NEAR LEASBURG, NC",36.39777778,-79.1966667,"37","37","033",400.08,"03010104",45.9
"02079640","USGS","ALLEN CREEK NEAR BOYDTON, VA",36.67958589,-78.326664,"51","51","117",216.5,"03010106",53.5
"02081500","USGS","TAR RIVER NEAR TAR RIVER, NC",36.19416667,-78.5830556,"37","37","077",286.34,"03020101",167
"02082770","USGS","SWIFT CREEK AT HILLIARDSTON, NC",36.1122222,-77.92,"37","37","127",129.41,"03020101",166
"02082950","USGS","LITTLE FISHING CREEK NEAR WHITE OAK, NC",36.1833333,-77.8761111,"37","37","083",115.44,"03020102",177
"02084160","USGS","CHICOD CR AT SR1760 NEAR SIMPSON, NC",35.56166667,-77.2308333,"37","37","147",-1.1,"03020103",45
"02091000","USGS","NAHUNTA SWAMP NEAR SHINE, NC",35.48888889,-77.8061111,"37","37","079",50.74,"03020203",80.4
"02092500","USGS","TRENT RIVER NEAR TRENTON, NC",35.06416667,-77.46138889,"37","37","103",19.15,"03020204",168
"02096846","USGS","CANE CREEK NEAR ORANGE GROVE, NC",35.9872222,-79.2061111,"37","37","135",507.69,"03030002",7.54
"02102908","USGS","FLAT CREEK NEAR INVERNESS, NC",35.18277778,-79.1775,"37","37","093",191.18,"03030004",7.63
"02105900","USGS","HOOD CREEK NEAR LELAND, NC",34.2786111,-78.1252778,"37","37","019",12.22,"03030005",21.6
"02111180","USGS","ELK CREEK AT ELKVILLE, NC",36.07138889,-81.4030556,"37","37","193",1082.4,"03040101",50.9
"02111500","USGS","REDDIES RIVER AT NORTH WILKESBORO, NC",36.175,-81.16888889,"37","37","193",978.08,"03040101",89.2
"02112120","USGS","ROARING RIVER NEAR ROARING RIVER, NC",36.25027778,-81.0444444,"37","37","193",964.85,"03040101",128
"02112360","USGS","MITCHELL RIVER NEAR STATE ROAD, NC",36.31138889,-80.8072222,"37","37","171",927.12,"03040101",78.8
"02118500","USGS","HUNTING CREEK NEAR HARMONY, NC",36.00055556,-80.7455556,"37","37","097",734.78,"03040102",155
"02125000","USGS","BIG BEAR CR NR RICHFIELD, NC",35.3347222,-80.3355556,"37","37","167",426.62,"03040105",55.6
"02128000","USGS","LITTLE RIVER NEAR STAR, NC",35.3872222,-79.83138889,"37","37","123",409,"03040104",106
"02135300","USGS","SCAPE ORE SWAMP NEAR BISHOPVILLE, S. C.",34.15071067,-80.30479729,"45","45","061",164.53,"03040205",96
"02137727","USGS","CATAWBA R NR PLEASANT GARDENS, NC",35.6858333,-82.0602778,"37","37","111",1233.82,"03050101",126
"02140991","USGS","JOHNS RIVER AT ARNEYS STORE, NC",35.8336111,-81.7119444,"37","37","023",1001.74,"03050101",201
"02142000","USGS","LOWER LITTLE RIVER NR ALL HEALING SPRINGS, NC",35.94555556,-81.2369444,"37","37","003",1070,"03050101",28.2
"02143000","USGS","HENRY FORK NEAR HENRY RIVER, NC",35.68444444,-81.4033333,"37","37","035",890.11,"03050102",83.2
"02143040","USGS","JACOB FORK AT RAMSEY, NC",35.59055556,-81.5669444,"37","37","023",1102.62,"03050102",25.7
"02147126","USGS","WAXHAW CREEK AT SR1103 NEAR JACKSON, NC",34.83694444,-80.7916667,"37","37","179",480.33,"03050103",35.1
"02147500","USGS","ROCKY CREEK AT GREAT FALLS, SC",34.5654221,-80.9198025,"45","45","023",297,"03050103",194
"02149000","USGS","COVE CREEK NEAR LAKE LURE, NC",35.4233333,-82.1116667,"37","37","161",815.4,"03050105",79
"02152100","USGS","FIRST BROAD RIVER NEAR CASAR, NC",35.49305556,-81.6822222,"37","37","045",899.87,"03050105",60.5
"02157470","USGS","MIDDLE TYGER RIVER NEAR GRAMLING, SC",35.03888889,-82.2186111,"45","45","083",860,"03050107",32.6
"02157490","USGS","BEAVERDAM CREEK ABOVE GREER, SC",34.97527778,-82.1955556,"45","45","083",820,"03050107",15.9
"02167450","USGS","LITTLE RIVER NR SILVERSTREET, SC",34.20957949,-81.7631659,"45","45","071",360,"03050109",224
"02171680","USGS","WEDBOO CREEK NEAR JAMESTOWN,S.C.",33.33072266,-79.8025745,"45","45","015",20,"03050112",16.6
"02174250","USGS","COW CASTLE CREEK NEAR BOWMAN, SC",33.37876895,-80.699815,"45","45","075",125,"03050205",23.4
"02177000","USGS","CHATTOOGA RIVER NEAR CLAYTON, GA",34.8139814,-83.305993,"13","45","073",1165.5,"03060102",207
"02178400","USGS","TALLULAH RIVER NEAR CLAYTON, GA",34.89037075,-83.530441,"13","13","241",1898.9,"03060102",58.4
"02192500","USGS","LITTLE RIVER NEAR MT. CARMEL, SC",34.07150595,-82.5006853,"45","45","065",355.03,"03060103",217
"02193340","USGS","KETTLE CREEK NEAR WASHINGTON, GA",33.68262815,-82.857923,"13","13","317",415.6,"03060105",33.9
"02197300","USGS","UPPER THREE RUNS NEAR NEW ELLENTON, SC",33.3848664,-81.616498,"45","45","003",174.7,"03060106",87
"02198100","USGS","BEAVERDAM CREEK NEAR SARDIS, GA",32.9375,-81.8153333,"13","13","033",186.48,"03060108",30.8
"02198690","USGS","EBENEZER CREEK AT SPRINGFIELD, GA",32.36574688,-81.2973323,"13","13","103",12.8,"03060109",162
"02202600","USGS","BLACK CREEK NEAR BLITCHTON, GA",32.1679803,-81.48816698,"13","13","029",27.5,"03060202",232
"02204130","USGS","HONEY CREEK AT GA 212, NEAR CONYERS, GA",33.57983406,-84.0640805,"13","13","247",629.7,"03070103",26
"02212600","USGS","FALLING CREEK NEAR JULIETTE, GA",33.10030556,-83.7231667,"13","13","169",366.52,"03070103",72.2
"02213050","USGS","WALNUT CREEK NEAR GRAY, GA",32.9723583,-83.61878639,"13","13","169",380.36,"03070103",31.3
"02215100","USGS","TUCSAWHATCHEE CREEK NEAR HAWKINSVILLE, GA",32.23944444,-83.5016667,"13","13","235",209.9,"03070104",163
"02216180","USGS","TURNPIKE CREEK NEAR MCRAE, GA",31.99138889,-82.9219444,"13","13","271",172.4,"03070105",49.2
"02221525","USGS","MURDER CREEK BELOW EATONTON, GA",33.25235506,-83.4812762,"13","13","237",374.7,"03070101",190
"02226100","USGS","PENHOLOWAY CREEK NEAR JESUP, GA",31.56688297,-81.8381694,"13","13","305",19.09,"03070106",208
"02231000","USGS","ST. MARYS RIVER NEAR MACCLENNY, FL",30.35884726,-82.0815013,"125","12","003",40,"03070204",700
"02231280","USGS","THOMAS CREEK NEAR CRAWFORD, FL",30.4610707,-81.8323275,"125","12","031",NA,"03070205",29.9
"02235200","USGS","BLACKWATER CREEK NEAR CASSIA, FL",28.87444444,-81.4897222,"125","12","069",18.55,"03080101",126
"02245255","USGS","DEEP CREEK NEAR HASTINGS, FL",29.68135917,-81.448686,"125","12","109",NA,"03080103",20.7
"02245500","USGS","SOUTH FORK BLACK CREEK NEAR PENNEY FARMS, FL",29.9794075,-81.8520426,"125","12","019",9.82,"03080103",134
"02246000","USGS","NORTH FORK BLACK CREEK NEAR MIDDLEBURG, FL",30.1132953,-81.9064915,"125","12","019",1.02,"03080103",177
"02268390","USGS","TIGER CREEK NEAR BABSON PARK FL",27.81141547,-81.4436846,"124","12","105",23.52,"03090101",52.8
"02296500","USGS","CHARLIE CREEK NEAR GARDNER FL",27.37504297,-81.7964708,"124","12","049",21.66,"03100101",330
"02297155","USGS","HORSE CREEK NEAR MYAKKA HEAD FL",27.4872613,-82.0234197,"124","12","049",58.12,"03100101",42
"02297310","USGS","HORSE CREEK AT SR 72 NEAR ARCADIA, FL",27.19949477,-81.9884193,"124","12","027",10.96,"03100101",218
"02298123","USGS","PRAIRIE CREEK NEAR FORT OGDEN FL",27.05199986,-81.7845267,"124","12","027",25,"03100101",233
"02298488","USGS","MYAKKA RIVER UPST FROM YOUNGS CK NR MYAKKA CITY FL",27.4292084,-82.1386997,"124","12","081",0,"03100102",29.2
"02298530","USGS","COKER CREEK NEAR MYAKKA CITY FL",27.4097648,-82.1750893,"124","12","081",-11.29,"03100102",6.59
"02298608","USGS","MYAKKA RIVER AT MYAKKA CITY FL",27.3436562,-82.1567556,"124","12","081",24.45,"03100102",125
"02299950","USGS","MANATEE RIVER AT SR 64 NEAR MYAKKA HEAD, FL",27.47365137,-82.211201,"124","12","081",40.93,"03100202",65.3
"02300700","USGS","BULLFROG CREEK NEAR WIMAUMA FL",27.79197208,-82.3520369,"124","12","057",-0.88,"03100206",29.1
"02314500","USGS","SUWANNEE RIVER AT US 441, AT FARGO, GA",30.68055556,-82.5605556,"13","13","065",91,"03110201",1130
"02315500","USGS","SUWANNEE RIVER AT WHITE SPRINGS, FLA.",30.3257812,-82.7381826,"123","12","023",0,"03110201",2430
"02315550","USGS","SUWANNEE RIVER AT SUWANNEE SPRINGS FLA",30.3929988,-82.9331875,"123","12","121",0,"03110201",2630
"02321000","USGS","NEW RIVER NR LAKE BUTLER FLA",29.9982954,-82.2739992,"123","12","125",83.8,"03110206",191
"02322800","USGS","SANTA FE RIVER NR HILDRETH FLA",29.91162076,-82.8604033,"125","12","041",3.5,"03110206",1374
"02326000","USGS","ECONFINA RIVER NEAR PERRY, FLA.",30.17076448,-83.8237679,"123","12","123",14.35,"03110102",198
"02326512","USGS","AUCILLA RIVER NR SCANLON, FLA.",30.23131776,-83.918772,"123","12","123",3.14,"03110103",805
"02327033","USGS","LOST CREEK AT ARRAN FLA",30.18825753,-84.40823469,"123","12","129",NA,"03120001",70.4
"02327100","USGS","SOPCHOPPY RIVER NR SOPCHOPPY, FLA.",30.12936856,-84.4943482,"123","12","129",0,"03120003",102
"02330400","USGS","NEW RIVER NEAR SUMATRA, FLA",30.03881356,-84.843799,"123","12","077",0,"03130013",157
"02331000","USGS","CHATTAHOOCHEE RIVER NEAR LEAF, GA",34.57704154,-83.6357316,"13","13","137",1219.47,"03130001",150
"02338523","USGS","HILLABAHATCHEE CREEK AT THAXTON RD, NR FRANKLIN,GA",33.3407222,-85.2267222,"13","13","149",910,"03130002",16.8
"02342850","USGS","HANNAHATCHEE CREEK AT UNION ROAD, AT UNION, GA",32.1527222,-84.9059167,"13","13","259",220,"03130003",121
"02342933","USGS","SOUTH FORK COWIKEE CREEK NEAR BATESVILLE AL",32.0176572,-85.2957704,"01","01","005",200,"03130003",112
"02343300","USGS","ABBIE CREEK NEAR HALEBURG AL",31.47350458,-85.162431,"01","01","067",145.74,"03130004",146
"02343940","USGS","SAWHATCHEE CREEK AT CEDAR SPRINGS, GA",31.18083333,-85.0436111,"13","13","099",109.9,"03130004",64.2
"02349900","USGS","TURKEY CREEK AT BYROMVILLE, GA",32.19555556,-83.9022222,"13","13","093",286,"03130006",47.5
"02350600","USGS","KINCHAFOONEE CREEK AT PRESTON, GA",32.0525,-84.5483333,"13","13","307",337.7,"03130007",197
"02350900","USGS","KINCHAFOONEE CREEK AT PINEWOOD ROAD, NR DAWSON, GA",31.76444444,-84.2533333,"13","13","177",211.74,"03130007",527
"02361000","USGS","CHOCTAWHATCHEE RIVER NEAR NEWTON, AL.",31.3429492,-85.6104912,"01","01","045",138.56,"03140201",686
"02362240","USGS","LITTLE DOUBLE BRIDGES CREEK NR ENTERPRISE, AL.",31.27239318,-85.9582737,"01","01","031",195,"03140201",21.4
"02363000","USGS","PEA RIVER NEAR ARITON AL",31.59488716,-85.7829975,"01","01","045",246.72,"03140202",498
"02364500","USGS","PEA RIVER NEAR SAMSON AL",31.11267588,-86.0993868,"01","01","061",97.95,"03140202",1182
"02364570","USGS","PANTHER CREEK NEAR HACODA AL",31.12100846,-86.1868896,"01","01","061",140,"03140202",26.2
"02365470","USGS","WRIGHTS CREEK AT SH 177-A NR BONIFAY,FL",30.8571301,-85.7621545,"123","12","059",NA,"03140203",148
"02365769","USGS","BRUCE CREEK AT SH 81 NR REDBAY, FL",30.6246363,-85.9424358,"123","12","131",13.04,"03140203",82.4
"02366996","USGS","ALAQUA CREEK NEAR PLEASANT RIDGE, FL",30.66908,-86.1866092,"123","12","131",60,"03140102",39.1
"02367310","USGS","JUNIPER CREEK AT STATE HWY 85 NR NICEVILLE, FLA.",30.5574179,-86.5193954,"123","12","091",7.78,"03140102",27.6
"02369800","USGS","BLACKWATER RIVER NEAR BRADLEY AL",31.02767985,-86.7099567,"01","01","053",121.87,"03140104",87.7
"02370000","USGS","BLACKWATER RIVER NR BAKER, FLA.",30.8335197,-86.7346786,"123","12","091",60.5,"03140104",205
"02370700","USGS","POND CREEK NR MILTON, FLA.",30.6807469,-87.1319134,"123","12","113",56,"03140104",64.5
"02371500","USGS","CONECUH RIVER AT BRANTLEY AL",31.57349458,-86.2516226,"01","01","041",226.2,"03140301",500
"02372250","USGS","PATSALIGA CREEK NEAR BRANTLEY AL",31.59627177,-86.40551809,"01","01","041",220,"03140302",442
"02373000","USGS","SEPULGA RIVER NEAR MCKENZIE AL",31.4537758,-86.7869139,"01","01","035",155.96,"03140303",470
"02374500","USGS","MURDER CREEK NEAR EVERGREEN AL",31.41850006,-86.9866403,"01","01","035",178.29,"03140304",176
"02374745","USGS","BURNT CORN CREEK AT STATE HWY 41 NEAR BREWTON, AL.",31.1298991,-87.0871928,"01","01","053",NA,"03140304",182
"02374950","USGS","BIG ESCAMBIA CR AT SARDINE BR NR STANLEY CROSSROAD",31.12962115,-87.3705353,"01","01","053",NA,"03140305",193
"02384540","USGS","MILL CREEK NEAR CRANDALL, GA",34.87194444,-84.7212778,"13","13","213",888.98,"03150101",8.24
"02390000","USGS","AMICALOLA CREEK NEAR DAWSONVILLE, GA.",34.42564847,-84.2118618,"13","13","085",1204,"03150104",89
"02395120","USGS","TWO RUN CREEK NEAR KINGSTON, GA",34.24277778,-84.8897222,"13","13","015",723.2,"03150104",33.1
"02408540","USGS","HATCHET CREEK BELOW ROCKFORD AL",32.9167896,-86.2702507,"01","01","037",377,"03150107",263
"02415000","USGS","HILLABEE CREEK NEAR HACKNEYVILLE AL",33.06539786,-85.8780186,"01","01","123",557.92,"03150109",190
"02422500","USGS","MULBERRY CREEK AT JONES AL",32.5829103,-86.9035991,"01","01","047",165.23,"03150201",203
"02427250","USGS","PINE BARREN CREEK NEAR SNOW HILL, AL.",31.99625809,-87.0683187,"01","01","131",126.6,"03150203",261
"02427700","USGS","TURKEY CREEK AT KIMBROUGH AL",32.0209819,-87.5583335,"01","01","131",58.78,"03150203",97.5
"02430085","USGS","RED BUD CREEK NR MOORES MILL, MS",34.46666667,-88.2836111,"28","28","141",360.36,"03160101",15.7
"02430615","USGS","MUD CREEK NR FAIRVIEW, MS",34.3925,-88.355,"28","28","057",313,"03160101",11.1
"02430880","USGS","CUMMINGS CREEK NR FULTON, MS",34.30444444,-88.3711111,"28","28","057",295,"03160101",19.1
"02438000","USGS","BUTTAHATCHEE RIVER BELOW HAMILTON AL",34.10621294,-87.9894765,"01","01","093",360.5,"03160103",277
"02448900","USGS","BODKA CREEK NEAR GEIGER, AL.",32.80707585,-88.3119761,"01","01","119",104.78,"03160108",158
"02450250","USGS","SIPSEY FORK NEAR GRAYSON AL",34.28537757,-87.3989084,"01","01","133",540,"03160110",92.1
"02450825","USGS","CLEAR C AT NEW HOPE CHURCH NR POPLAR SPRINGS, AL.",34.08121506,-87.422793,"01","01","133",NA,"03160110",101
"02464000","USGS","NORTH RIVER NEAR SAMANTHA AL",33.47928058,-87.5972297,"01","01","125",232.39,"03160112",223
"02464146","USGS","TURKEY CREEK NEAR TUSCALOOSA",33.41344824,-87.5105601,"01","01","125",270,"03160112",6.16
"02464360","USGS","BINION CREEK BELOW GIN CREEK NEAR SAMANTHA AL",33.42483704,-87.6425091,"01","01","125",NA,"03160112",57.2
"02465493","USGS","ELLIOTTS CREEK AT MOUNDVILLE AL",32.99734636,-87.6222295,"01","01","065",147.81,"03160113",32.3
"02467500","USGS","SUCARNOOCHEE RIVER AT LIVINGSTON AL",32.57374714,-88.1933589,"01","01","119",90.04,"03160202",607
"02469800","USGS","SATILPA CREEK NEAR COFFEEVILLE AL",31.7443247,-88.0225066,"01","01","025",39.8,"03160203",164
"02470072","USGS","BASSETT CREEK AT US HIGHWAY 43 NR THOMASVILLE, AL.",31.86404249,-87.7472247,"01","01","025",292,"03160203",10.5
"02472000","USGS","LEAF RIVER NR COLLINS, MS",31.70694444,-89.4069444,"28","28","031",197.01,"03170004",743
"02472500","USGS","BOUIE CREEK NR HATTIESBURG, MS",31.42583333,-89.4147222,"28","28","035",160.04,"03170004",304
"02472850","USGS","OKATOMA CREEK AT SANFORD, MS",31.48916667,-89.4333333,"28","28","031",183.33,"03170004",257
"02479155","USGS","CYPRESS CREEK NR JANICE, MS",31.02527778,-89.0166667,"28","28","111",103,"03170007",52.6
"02479300","USGS","RED CREEK AT VESTRY, MS",30.7361111,-88.7811111,"28","28","039",20.1,"03170007",441
"02479431","USGS","POND CREEK NEAR DEER PARK AL",31.16101118,-88.3619574,"01","01","129",128,"03170008",20.4
"02479560","USGS","ESCATAWPA RIVER NEAR AGRICOLA MS",30.8118552,-88.4586274,"01","28","039",46,"03170008",562
"02479945","USGS","BIG CREEK AT COUNTY RD 63 NEAR WILMER, AL.",30.85601968,-88.3338988,"01","01","097",NA,"03170008",31.48
"02481000","USGS","BILOXI RIVER AT WORTHAM, MS",30.5586111,-89.1219444,"28","28","047",19.18,"03170009",96.2
"02481510","USGS","WOLF RIVER NR LANDON, MS",30.4836111,-89.2744444,"28","28","047",14.34,"03170009",308
"02483500","USGS","PEARL RIVER NR LENA, MS",32.6672222,-89.6461111,"28","28","079",300,"03180001",1981
"02488700","USGS","WHITESAND CREEK NR OAKVALE, MS",31.47055556,-89.9736111,"28","28","077",182.2,"03180003",130
"03010655","USGS","Oswayo Creek at Shinglehouse, PA",41.96173237,-78.1980662,"42","42","105",1460.34,"05010001",98.7
"03011800","USGS","Kinzua Creek near Guffey, PA",41.76645099,-78.71863999,"42","42","083",1540,"05010001",38.8
"03015500","USGS","Brokenstraw Creek at Youngsville, PA",41.8525587,-79.3172708,"42","42","123",1186.92,"05010001",321
"03017500","USGS","Tionesta Creek at Lynch, PA",41.60200599,-79.0500392,"42","42","053",1252.43,"05010003",233
"03021350","USGS","French Creek near Wattsburg, PA",42.015332,-79.7825507,"42","42","049",1304.84,"05010004",92
"03022540","USGS","Woodcock Creek at Blooming Valley, PA",41.6906115,-80.04811219,"42","42","039",NA,"05010004",31.1
"03026500","USGS","Sevenmile Run near Rasselas, PA",41.63117349,-78.5766898,"42","42","083",1690.73,"05010005",7.84
"03028000","USGS","West Branch Clarion River at Wilcox, PA",41.57533955,-78.69224919,"42","42","047",1502.02,"05010005",63
"03049000","USGS","Buffalo Creek near Freeport, PA",40.71644444,-79.6999167,"42","42","019",792,"05010009",137
"03049800","USGS","Little Pine Creek near Etna, PA",40.5203462,-79.93810799,"42","42","003",774.26,"05010009",5.78
"03050000","USGS","TYGART VALLEY RIVER NEAR DAILEY, WV",38.809275,-79.8817342,"54","54","083",1940.53,"05020001",185
"03065000","USGS","DRY FORK AT HENDRICKS, WV",39.07232928,-79.6228373,"54","54","093",1699.13,"05020004",349
"03065400","USGS","BLACKWATER RIVER NEAR DAVIS, WV",39.14010775,-79.4197715,"54","54","093",3128.54,"05020004",54.7
"03066000","USGS","BLACKWATER RIVER AT DAVIS, WV",39.1270524,-79.4683852,"54","54","093",3059.25,"05020004",85.9
"03068800","USGS","SHAVERS FORK BELOW BOWDEN, WV",38.91316335,-79.770342,"54","54","083",2112.64,"05020004",151
"03069000","USGS","SHAVERS FORK AT PARSONS, WV",39.0962172,-79.6767291,"54","54","093",1634.87,"05020004",213
"03069500","USGS","CHEAT RIVER NEAR PARSONS, WV",39.12155556,-79.6755278,"54","54","093",1589.93,"05020004",722
"03070000","USGS","CHEAT RIVER AT ROWLESBURG, WV",39.34620905,-79.6653372,"54","54","077",1375,"05020004",939
"03070500","USGS","BIG SANDY CREEK AT ROCKVILLE, WV",39.62175,-79.7045556,"54","54","077",1323,"05020004",200
"03076600","USGS","BEAR CREEK AT FRIENDSVILLE, MD",39.65613889,-79.3941111,"24","24","023",1550.83,"05020006",48.9
"03078000","USGS","CASSELMAN RIVER AT GRANTSVILLE, MD",39.70219444,-79.13638889,"24","24","023",2088.56,"05020006",62.5
"03092000","USGS","Kale Creek near Pricetown OH",41.1397793,-80.995092,"39","39","155",914.7,"05030103",21.9
"03092090","USGS","West Branch Mahoning River near Ravenna OH",41.16144549,-81.1970453,"39","39","133",1011.17,"05030103",21.8
"03114500","USGS","MIDDLE ISLAND CREEK AT LITTLE, WV",39.4750762,-80.9970537,"54","54","095",630.94,"05030201",458
"03115400","USGS","Little Muskingum River at Bloomfield OH",39.5631294,-81.2037236,"39","39","167",645.34,"05030201",210
"03121850","USGS","Huff Run at Mineral City OH",40.59728465,-81.3590012,"39","39","157",886.45,"05040001",12.3
"03140000","USGS","Mill Creek near Coshocton OH",40.36284598,-81.8623563,"39","39","031",781.16,"05040003",27.2
"03144000","USGS","Wakatomika Creek near Frazeysburg OH",40.1325682,-82.1479201,"39","39","119",747.47,"05040004",140
"03149500","USGS","Salt Creek near Chandlersville OH",39.9086814,-81.8604105,"39","39","119",677.76,"05040004",75.7
"03155500","USGS","HUGHES RIVER AT CISCO, WV",39.11868976,-81.2773386,"54","54","085",607.92,"05030203",453
"03158200","USGS","Monday Creek at Doanville OH",39.43534835,-82.1915365,"39","39","009",652.56,"05030204",114
"03159540","USGS","Shade River near Chester OH",39.06368935,-81.8818024,"39","39","105",576.28,"05030202",156
"03161000","USGS","SOUTH FORK NEW RIVER NEAR JEFFERSON, NC",36.3933333,-81.4069444,"37","37","009",2657.04,"05050001",205
"03164000","USGS","NEW RIVER NEAR GALAX, VA",36.6473497,-80.978969,"51","51","077",2207.57,"05050001",1141
"03167500","USGS","BIG REED ISLAND CREEK NEAR ALLISONIA, VA",36.88901335,-80.72757,"51","51","155",1902.74,"05050001",267
"03170000","USGS","LITTLE RIVER AT GRAYSONTOWN, VA",37.03762635,-80.5567239,"51","51","155",1816.04,"05050001",300
"03173000","USGS","WALKER CREEK AT BANE, VA",37.26817845,-80.7095125,"51","51","071",1665.92,"05050002",299
"03180500","USGS","GREENBRIER RIVER AT DURBIN, WV",38.54372659,-79.833115,"54","54","075",2699.5,"05050003",133
"03182500","USGS","GREENBRIER RIVER AT BUCKEYE, WV",38.1862222,-80.13,"54","54","075",2085.7,"05050003",540
"03186500","USGS","WILLIAMS RIVER AT DYER, WV",38.37899915,-80.4839737,"54","54","101",2193.59,"05050005",128
"03187500","USGS","CRANBERRY RIVER NEAR RICHWOOD, WV",38.2953903,-80.5264749,"54","54","067",2130.07,"05050005",80.4
"03198350","USGS","CLEAR FORK AT WHITESVILLE, WV",37.9662186,-81.524278,"54","54","081",818.49,"05050009",62.8
"03201902","USGS","Raccoon Creek near Bolins Mills OH",39.23055556,-82.2858333,"39","39","163",657.65,"05090101",205
"03207965","USGS","GRAPEVINE CREEK NEAR PHYLLIS, KY",37.43260479,-82.3537563,"21","21","195",780,"05070202",6.2
"03210000","USGS","JOHNS CREEK NEAR META, KY",37.5670444,-82.45792659,"21","21","195",714.91,"05070203",56.3
"03213700","USGS","TUG FORK AT WILLIAMSON, WV",37.67315699,-82.2801408,"54","21","195",619.68,"05070201",936
"03228750","USGS","Alum Creek near Kilbourne OH",40.35672806,-82.9215704,"39","39","041",900.15,"05060001",64.9
"03237255","USGS","KINNICONICK CREEK BELOW TRACE CREEK AT TANNERY, KY",38.54527778,-83.22138889,"21","21","135",NA,"05090201",214
"03237280","USGS","Upper Twin Creek at McGaw OH",38.64368745,-83.21573648,"39","39","145",541.88,"05090201",12.2
"03237500","USGS","Ohio Brush Creek near West Union OH",38.8036838,-83.4210226,"39","39","001",510.19,"05090201",387
"03238500","USGS","White Oak Creek near Georgetown OH",38.85812494,-83.9285394,"39","39","015",604.2,"05090201",218
"03241500","USGS","Massies Creek at Wilberforce OH",39.72238889,-83.8823056,"39","39","057",865.03,"05090202",63.2
"03248500","USGS","LICKING RIVER NEAR SALYERSVILLE, KY",37.75092537,-83.0843377,"21","21","153",823.8,"05100101",140
"03250100","USGS","NORTH FORK TRIPLETT CREEK NEAR MOREHEAD, KY",38.1992478,-83.4804635,"21","21","205",678.03,"05100101",84.7
"03250322","USGS","ROCK LICK CR AT STATE HWY 158 NR SHARKEY, KY STA D",38.24730198,-83.5893567,"21","21","069",NA,"05100101",4.2
"03251000","USGS","NORTH FORK LICKING RIVER NEAR LEWISBURG, KY",38.5492422,-83.7935322,"21","21","161",680,"05100101",119
"03251200","USGS","NORTH FORK LICKING RIVER NEAR MT OLIVET, KY",38.5947955,-84.0202056,"21","21","023",622.46,"05100101",226
"03252300","USGS","HINKSTON CREEK NEAR CARLISLE, KY",38.2474368,-84.05514979,"21","21","017",NA,"05100102",154
"03272700","USGS","Sevenmile Creek at Camden OH",39.6292196,-84.6443964,"39","39","135",818.45,"05080002",69
"03276700","USGS","SOUTH HOGAN CREEK NEAR DILLSBORO, IND.",39.0297792,-85.0380097,"18","18","029",571,"05090203",38.1
"03280700","USGS","CUTSHIN CREEK AT WOOTON, KY",37.1650931,-83.3079564,"21","21","131",869.84,"05100202",61.3
"03281040","USGS","RED BIRD RIVER NEAR BIG CREEK, KY",37.17870128,-83.592969,"21","21","051",815.74,"05100203",155
"03281100","USGS","GOOSE CREEK AT MANCHESTER, KY",37.15203405,-83.7601974,"21","21","051",819.37,"05100203",163
"03281500","USGS","SOUTH FORK KENTUCKY RIVER AT BOONEVILLE, KY",37.47981018,-83.6751923,"21","21","189",642.49,"05100203",722
"03282040","USGS","STURGEON CREEK AT CRESSMONT, KY",37.5006422,-83.8101979,"21","21","129",704.53,"05100204",77.3
"03282500","USGS","RED RIVER NEAR HAZEL GREEN, KY",37.8123083,-83.4637953,"21","21","237",870.11,"05100204",65.8
"03285000","USGS","DIX RIVER NEAR DANVILLE, KY",37.6420234,-84.6607768,"21","21","079",749.65,"05100205",318
"03291780","USGS","INDIAN-KENTUCK CREEK NEAR CANAAN, IN",38.8781136,-85.2571788,"18","18","077",588.4,"05140101",27.5
"03292460","USGS","HARRODS CREEK NEAR LA GRANGE, KY",38.44728767,-85.4091249,"21","21","185",662.64,"05140101",24.1
"03300400","USGS","BEECH FORK AT MAUD, KY",37.83283985,-85.2960686,"21","21","179",530,"05140103",436
"03302110","USGS","OTTER CREEK AT OTTER CR PARK NEAR ROCK HAVEN KY.",37.92340395,-86.0305208,"21","21","163",NA,"05140104",99.2
"03302680","USGS","WEST FORK BLUE RIVER AT SALEM, IN",38.60533536,-86.0944222,"18","18","175",712.54,"05140104",19
"03310400","USGS","BACON CREEK NEAR PRICEVILLE, KY",37.35194444,-85.9661111,"21","21","099",568.13,"05110001",85.4
"03318800","USGS","CANEY CREEK NEAR HORSE BRANCH, KY",37.4639398,-86.6555419,"21","21","183",415.94,"05110004",124
"03327520","USGS","PIPE CREEK NEAR BUNKER HILL, IND.",40.66837374,-86.0955477,"18","18","103",736,"05120101",159
"03338780","USGS","NORTH FORK VERMILION RIVER NEAR BISMARCK, IL",40.26531416,-87.6427989,"17","17","183",594,"05120109",262
"03340800","USGS","BIG RACCOON CREEK NEAR FINCASTLE, IN",39.8125446,-86.9538988,"18","18","133",686.03,"05120108",139
"03346000","USGS","NORTH FORK EMBARRAS RIVER NEAR OBLONG, IL",39.01004218,-87.9455882,"17","17","033",456.19,"05120112",318
"03357330","USGS","BIG WALNUT CREEK NEAR ROACHDALE, IN",39.8162678,-86.7539873,"18","18","133",779.04,"05120203",131
"03364500","USGS","CLIFTY CREEK AT HARTSVILLE, IN",39.2747732,-85.7016469,"18","18","005",676.88,"05120206",91.4
"03366500","USGS","MUSCATATUCK RIVER NEAR DEPUTY, IN",38.80422346,-85.673855,"18","18","077",540,"05120207",293
"03368000","USGS","BRUSH CREEK NEAR NEBRASKA, IN",39.07033129,-85.4860766,"18","18","079",716.64,"05120207",11.4
"03374455","USGS","PATOKA RIVER NEAR HARDINSBURG, IND",38.44478054,-86.38720569,"18","18","117",606.89,"05120209",12.8
"03380475","USGS","HORSE CREEK NEAR KEENES, IL",38.37615934,-88.6622777,"17","17","191",395.35,"05120115",97.2
"03384450","USGS","LUSK CREEK NEAR EDDYVILLE, IL",37.4725833,-88.5476944,"17","17","151",360.42,"05140203",42.9
"03403910","USGS","CLEAR FORK AT SAXTON, KY",36.63397105,-84.1115969,"21","21","235",921.54,"05130101",331
"03408500","USGS","NEW RIVER AT NEW RIVER, TN",36.3855167,-84.5547174,"47","47","151",1092.43,"05130104",382
"03409500","USGS","CLEAR FORK NEAR ROBBINS, TN",36.38828757,-84.6301881,"47","47","151",1081.01,"05130104",272
"03410210","USGS","SOUTH FK CUMBERLAND RIVER AT LEATHERWOOD FORD, TN",36.47738108,-84.6693676,"47","47","151",862.1,"05130104",806
"03410500","USGS","SOUTH FORK CUMBERLAND RIVER NEAR STEARNS, KY",36.62702209,-84.5332723,"21","21","147",763.83,"05130104",954
"03413200","USGS","BEAVER CREEK NEAR MONTICELLO, KY",36.79757036,-84.89605849,"21","21","231",804.72,"05130103",43.4
"03415000","USGS","WEST FORK OBEY RIVER NEAR ALPINE, TN",36.3973873,-85.1744486,"47","47","133",680.66,"05130105",115
"03416000","USGS","WOLF RIVER NEAR BYRDSTOWN, TN",36.5603447,-85.0730073,"47","47","137",707.54,"05130105",106
"03424730","USGS","SMITH FORK AT TEMPERANCE HALL, TN",36.08731209,-85.9074506,"47","47","041",498.91,"05130108",214
"03427500","USGS","EAST FORK STONES RIVER NEAR LASCASSAS, TN",35.91839756,-86.3338806,"47","47","149",507.63,"05130203",262
"03431800","USGS","SYCAMORE CREEK NEAR ASHLAND CITY, TN",36.3200218,-87.0511943,"47","47","021",411.87,"05130202",97.2
"03436690","USGS","YELLOW CREEK AT ELLIS MILLS, TN",36.31064906,-87.55394199,"47","47","083",NA,"05130205",103
"03439000","USGS","FRENCH BROAD RIVER AT ROSMAN, NC",35.1433333,-82.8247222,"37","37","175",2173.83,"06010105",67.9
"03441000","USGS","DAVIDSON RIVER NEAR BREVARD, NC",35.27305556,-82.7058333,"37","37","175",2115.13,"06010105",40.4
"03450000","USGS","BEETREE CREEK NEAR SWANNANOA, NC",35.65305556,-82.4052778,"37","37","021",2726.39,"06010105",5.46
"03455500","USGS","W F PIGEON R ABOVE LAKE LOGAN NR HAZELWOOD, NC",35.3961111,-82.9375,"37","37","087",2976,"06010106",27.6
"03456500","USGS","EAST FORK PIGEON RIVER NEAR CANTON, NC",35.46166667,-82.8697222,"37","37","087",2674.34,"06010106",51.5
"03460000","USGS","CATALOOCHEE CREEK NEAR CATALOOCHEE, NC",35.6672222,-83.0727778,"37","37","087",2456.88,"06010106",49.2
"03463300","USGS","SOUTH TOE RIVER NEAR CELO, NC",35.83138889,-82.1841667,"37","37","199",2658,"06010108",43.3
"03465500","USGS","NOLICHUCKY RIVER AT EMBREEVILLE, TN",36.1764961,-82.457364,"47","47","179",1519.3,"06010108",805
"03466228","USGS","SINKING CREEK AT AFTON, TN",36.19871436,-82.7418188,"47","47","059",1459.36,"06010108",13.7
"03467000","USGS","LICK CREEK AT MOHAWK, TN",36.2014865,-83.0476601,"47","47","059",1060.59,"06010108",220
"03471500","USGS","S F HOLSTON RIVER AT RIVERSIDE, NEAR CHILHOWIE, VA",36.7603931,-81.63122929,"51","51","173",2106.71,"06010102",76.6
"03473000","USGS","S F HOLSTON RIVER NEAR DAMASCUS, VA",36.65178127,-81.8440102,"51","51","191",1792.3,"06010102",303
"03479000","USGS","WATAUGA RIVER NEAR SUGAR GROVE, NC",36.23916667,-81.8222222,"37","37","189",2607.84,"06010103",92.1
"03488000","USGS","N F HOLSTON RIVER NEAR SALTVILLE, VA",36.89678115,-81.7462293,"51","51","173",1703.53,"06010101",221
"03491000","USGS","BIG CREEK NEAR ROGERSVILLE, TN",36.42620656,-82.9518304,"47","47","073",1128.9,"06010104",47.3
"03497300","USGS","LITTLE RIVER ABOVE TOWNSEND, TN",35.66453328,-83.7112821,"47","47","009",1106.92,"06010201",106
"03498500","USGS","LITTLE RIVER NEAR MARYVILLE, TN",35.7856206,-83.88460359,"47","47","009",850,"06010201",269
"03500000","USGS","LITTLE TENNESSEE RIVER NEAR PRENTISS, NC",35.15,-83.3797222,"37","37","113",2008.39,"06010202",140
"03500240","USGS","CARTOOGECHAYE CREEK NEAR FRANKLIN, NC",35.15888889,-83.3941667,"37","37","113",2017.18,"06010202",57.1
"03504000","USGS","NANTAHALA RIVER NEAR RAINBOW SPRINGS, NC",35.1275,-83.6186111,"37","37","113",3072.97,"06010202",51.9
"03518500","USGS","TELLICO RIVER AT TELLICO PLAINS, TN",35.3620163,-84.2790141,"47","47","123",846.64,"06010204",118
"03527220","USGS","CLINCH RIVER NEAR LOONEYS GAP, TN",36.57280708,-82.938754,"47","47","067",NA,"06010205",1154
"03535000","USGS","BULLRUN CREEK NEAR HALLS CROSSROADS, TN",36.11441319,-83.9881737,"47","47","093",854.91,"06010207",68.5
"03538225","USGS","POPLAR CREEK NEAR OAK RIDGE, TN",35.9988721,-84.3396483,"47","47","145",743.5,"06010207",82.5
"03539778","USGS","CLEAR CREEK AT LILLY BRIDGE NEAR LANCING, TN",36.1031293,-84.7182771,"47","47","129",1040.99,"06010208",170
"03544947","USGS","BRIER CREEK NEAR HIAWASSEE, GA",34.83481567,-83.7093407,"13","13","281",2141.43,"06020002",1.67
"03566525","USGS","NORTH CHICKAMAUGA CREEK NEAR MONTLAKE, TN",35.23840184,-85.23576419,"47","47","065",NA,"06020001",60.55
"03572110","USGS","CROW CREEK AT BASS",34.93424968,-85.9174783,"01","01","071",598.76,"06030001",131
"03574500","USGS","PAINT ROCK RIVER NEAR WOODVILLE AL",34.6242547,-86.3063737,"01","01","071",570.95,"06030002",320
"03578000","USGS","ELK RIVER NEAR PELHAM, TN",35.29679918,-85.8697528,"47","47","061",981,"06030003",65.6
"03578500","USGS","BRADLEY CREEK NR PRAIRIE PLAINS, TENN.",35.35630454,-85.9790412,"47","47","031",968.15,"06030003",41.3
"03584020","USGS","RICHLAND CREEK AT HWY 64 NEAR PULASKI, TN",35.2108329,-87.100402,"47","47","055",637.29,"06030004",366
"03592718","USGS","LITTLE YELLOW CREEK EAST NR BURNSVILLE, MS",34.83555556,-88.2880556,"28","28","141",429.51,"06030005",24.7
"03599450","USGS","FOUNTAIN CREEK NEAR FOUNTAIN HEIGHTS, TN",35.51823977,-86.94207,"47","47","119",598.33,"06040002",74
"03600500","USGS","BIG BIGBY CREEK AT SANDY HOOK, TN",35.48868717,-87.2330663,"47","47","119",670.44,"06040003",17.5
"03604000","USGS","BUFFALO RIVER NEAR FLAT WOODS, TN",35.49590598,-87.8328037,"47","47","135",513.58,"06040004",447
"04014500","USGS","BAPTISM RIVER NEAR BEAVER BAY, MN",47.33741728,-91.2007189,"27","27","075",613.65,"04010101",140
"04015330","USGS","KNIFE RIVER NEAR TWO HARBORS, MN",46.94688005,-91.7924013,"27","27","075",NA,"04010102",83.6
"04024098","USGS","DEER CREEK NEAR HOLYOKE, MN",46.52494308,-92.3890828,"27","27","017",NA,"04010301",7.7
"04024430","USGS","NEMADJI RIVER NEAR SOUTH SUPERIOR, WI",46.6333333,-92.0938889,"55","55","031",601.1,"04010301",420
"04027000","USGS","BAD RIVER NEAR ODANAH, WI",46.4866144,-90.696297,"55","55","003",668.35,"04010302",597
"04031000","USGS","BLACK RIVER NEAR BESSEMER, MI",46.5113361,-90.0746179,"26","26","053",1154.23,"04020101",200
"04033000","USGS","MIDDLE BRANCH ONTONAGON RIVER NEAR PAULDING, MI",46.3568916,-89.0765285,"26","26","131",1485.59,"04020102",164
"04040500","USGS","STURGEON RIVER NEAR SIDNAW, MI",46.58410589,-88.5759697,"26","26","013",1214.52,"04020104",171
"04043050","USGS","TRAP ROCK RIVER NEAR LAKE LINDEN, MI",47.22853637,-88.3853928,"26","26","061",621.71,"04020103",28
"04043150","USGS","SILVER RIVER NEAR L'ANSE, MI",46.80409698,-88.3170724,"26","26","013",630,"04020105",64.7
"04045500","USGS","TAHQUAMENON RIVER NEAR PARADISE, MI",46.5745833,-85.26963889,"26","26","095",698.17,"04020202",790
"04046000","USGS","BLACK RIVER NEAR GARNET, MI",46.11780556,-85.3660556,"26","26","097",629.64,"04060107",28
"04056500","USGS","MANISTIQUE RIVER NEAR MANISTIQUE, MI",46.03052857,-86.161249,"26","26","153",608.42,"04060106",1100
"04057510","USGS","STURGEON RIVER NEAR NAHMA JUNCTION, MI",45.9430235,-86.7056997,"26","26","041",611.01,"04030112",183
"04057800","USGS","MIDDLE BRANCH ESCANABA RIVER AT HUMBOLDT, MI",46.49910267,-87.8865238,"26","26","103",1521.37,"04030110",45.7
"04059500","USGS","FORD RIVER NEAR HYDE, MI",45.7549674,-87.2020793,"26","26","041",681.71,"04030109",450
"04062200","USGS","PESHEKEE RIVER NEAR CHAMPION, MI",46.5568788,-88.0026337,"26","26","103",1557.49,"04030107",133
"04063700","USGS","POPPLE RIVER NEAR FENCE, WI",45.7636111,-88.4636111,"55","55","037",1406.24,"04030108",139
"04066500","USGS","PIKE RIVER AT AMBERG, WI",45.5,-88,"55","55","075",855,"04030108",255
"04067958","USGS","PESHTIGO RIVER NEAR WABENO, WI",45.38774406,-88.3051099,"55","55","075",980,"04030105",447
"04071858","USGS","PENSAUKEE RIVER NEAR PENSAUKEE, WI",44.81888889,-87.9544444,"55","55","083",583.69,"04030103",134
"04074538","USGS","SWAMP CREEK ABOVE RICE LAKE AT MOLE LAKE, WI",45.48829647,-88.9637249,"55","55","041",1532.28,"04030202",46.3
"04074950","USGS","WOLF RIVER AT LANGLADE, WI",45.18997026,-88.7334398,"55","55","067",1250,"04030202",463
"04077400","USGS","WOLF RIVER NEAR SHAWANO, WI",44.83581639,-88.6251035,"55","55","115",795.43,"04030202",816
"04085119","USGS","BOWER CREEK @ COUNTY TRNK HIGHWAY MM NR DE PERE,WI",44.42249308,-87.9400994,"55","55","009",790,"04030204",14.8
"04085200","USGS","KEWAUNEE RIVER NEAR KEWAUNEE, WI",44.45833125,-87.5564746,"55","55","061",579.57,"04030102",127
"04085281","USGS","EAST TWIN RIVER AT MISHICOT, WI",44.23777309,-87.6364725,"55","55","071",584.72,"04030101",110
"04096900","USGS","NOTTAWA CREEK NEAR ATHENS, MI",42.05525,-85.30838889,"26","26","149",854,"04050001",162
"04102776","USGS","MIDDLE BRANCH BLACK RIVER NEAR SOUTH HAVEN, MI",42.4325306,-86.2069742,"26","26","005",590,"04050002",83
"04104945","USGS","WANADOGA CREEK NEAR BATTLE CREEK, MI",42.3964281,-85.13166,"26","26","025",826.64,"04050003",48.3
"04105700","USGS","AUGUSTA CREEK NEAR AUGUSTA, MI",42.3533734,-85.3538894,"26","26","077",815,"04050003",38.9
"04115265","USGS","FISH CREEK NEAR CRYSTAL, MI",43.2497545,-84.9811245,"26","26","117",795,"04050005",39.7
"04117000","USGS","QUAKER BROOK NEAR NASHVILLE, MI",42.5658695,-85.0936085,"26","26","015",821.89,"04050007",7.6
"04122200","USGS","WHITE RIVER NEAR WHITEHALL, MI",43.46417856,-86.2325668,"26","26","121",593.81,"04060101",406
"04122500","USGS","PERE MARQUETTE RIVER AT SCOTTVILLE, MI",43.9450063,-86.2786896,"26","26","105",597.47,"04060101",681
"04124000","USGS","MANISTEE RIVER NEAR SHERMAN, MI",44.43639239,-85.6986792,"26","26","165",803.99,"04060103",857
"04124500","USGS","EAST BRANCH PINE RIVER NEAR TUSTIN, MI",44.102511,-85.5172766,"26","26","133",1077.35,"04060103",60
"04125460","USGS","PINE RIVER AT HIGH SCHOOL BRIDGE NR HOXEYVILLE, MI",44.19334009,-85.7697863,"26","26","165",850,"04060103",245
"04126970","USGS","BOARDMAN R ABOVE BROWN BRIDGE ROAD NR MAYFIELD, MI",44.65667,-85.436731,"26","26","055",830,"04060105",141
"04127997","USGS","STURGEON RIVER AT WOLVERINE, MI",45.27445746,-84.6000315,"26","26","031",770,"04070004",192
"04128000","USGS","STURGEON RIVER NEAR WOLVERINE, MI",45.29890157,-84.6111438,"26","26","031",740,"04070004",198
"04136000","USGS","AU SABLE RIVER NEAR RED OAK, MI",44.6769593,-84.2925146,"26","26","135",1000,"04070007",1108
"04150500","USGS","CASS RIVER AT CASS CITY, MI",43.58418519,-83.1760579,"26","26","157",697.92,"04080205",359
"04159500","USGS","BLACK RIVER NEAR FARGO, MI",43.09224958,-82.6179795,"26","26","147",613.75,"04090001",480
"04161580","USGS","STONY CREEK NEAR ROMEO, MI",42.8008637,-83.0902121,"26","26","099",861.64,"04090003",25.6
"04185000","USGS","Tiffin River at Stryker OH",41.50449567,-84.4296719,"39","39","171",684.31,"04100006",410
"04185440","USGS","Unnamed Tributary to Lost Creek near Farmer OH",41.3617172,-84.6910667,"39","39","039",758.04,"04100006",4.23
"04196800","USGS","Tymochtee Creek at Crawford OH",40.9228332,-83.3488116,"39","39","175",785.72,"04100011",229
"04197100","USGS","Honey Creek at Melmore OH",41.022278,-83.1096382,"39","39","147",816.21,"04100011",149
"04197170","USGS","Rock Creek at Tiffin OH",41.1136659,-83.1682521,"39","39","147",727.17,"04100011",34.6
"04199155","USGS","Old Woman Creek at Berlin Rd near Huron OH",41.34838289,-82.51378249,"39","39","043",572.61,"04100012",22.1
"04213000","USGS","Conneaut Creek at Conneaut OH",41.92699898,-80.6039659,"39","39","007",609.31,"04120101",175
"04213075","USGS","Brandy Run near Girard, PA",41.9920003,-80.2911737,"42","42","049",800,"04120101",4.45
"04216418","USGS","TONAWANDA CREEK AT ATTICA NY",42.86388889,-78.2836111,"36","36","121",954.1,"04120104",76.9
"04216500","USGS","LITTLE TONAWANDA CREEK AT LINDEN NY",42.87694444,-78.1630556,"36","36","037",1081.62,"04120104",22.1
"04221000","USGS","GENESEE RIVER AT WELLSVILLE NY",42.1222222,-77.9572222,"36","36","003",1469.51,"04130002",288
"04224775","USGS","CANASERAGA CREEK ABOVE DANSVILLE NY",42.53555556,-77.7041667,"36","36","051",715.6,"04130002",88.9
"04232100","USGS","STERLING CREEK AT STERLING NY",43.32527778,-76.6472222,"36","36","011",264.69,"04140101",44.4
"04233000","USGS","CAYUGA INLET NEAR ITHACA NY",42.39305556,-76.545,"36","36","109",437.16,"04140201",35.2
"04233286","USGS","SIXMILE CREEK AT BROOKTONDALE NY",42.38138889,-76.3944444,"36","36","109",909.9,"04140201",27
"04233300","USGS","SIXMILE CREEK AT BETHEL GROVE NY",42.40305556,-76.435,"36","36","109",759.26,"04140201",39
"04237962","USGS","ONONDAGA CREEK NEAR CARDIFF NY",42.9,-76.1691667,"36","36","067",486.62,"04140201",33.9
"04245200","USGS","BUTTERNUT CREEK NEAR JAMESVILLE NY",42.93388889,-76.0619444,"36","36","067",717.93,"04140202",32.2
"04256000","USGS","INDEPENDENCE RIVER AT DONNATTSBURG NY",43.74680556,-75.3334444,"36","36","049",972.4,"04150101",88.7
"04265432","USGS","GRASS RIVER AT CHASE MILLS NY",44.84666667,-75.0780556,"36","36","089",225.59,"04150304",598
"04268800","USGS","WEST BRANCH ST. REGIS RIVER NEAR PARISHVILLE NY",44.5986111,-74.7372222,"36","36","089",969.05,"04150306",171
"04273700","USGS","SALMON RIVER AT SOUTH PLATTSBURGH NY",44.64,-73.4947222,"36","36","019",220.45,"04150408",63.3
"04273800","USGS","LITTLE AUSABLE RIVER NEAR VALCOUR NY",44.59416667,-73.4961111,"36","36","019",235.28,"04150408",67.8
"04276842","USGS","PUTNAM CREEK EAST OF CROWN POINT CENTER NY",43.9425,-73.4636111,"36","36","031",211.37,"04150408",51.6
"04280350","USGS","METTAWEE RIVER NEAR PAWLET, VT",43.37062828,-73.21621889,"33","50","021",525,"04150401",70.2
"04282525","USGS","NEW HAVEN RIVER @ BROOKSVILLE, NR MIDDLEBURY, VT",44.0617249,-73.17067429,"33","50","001",235,"04150402",115
"04282650","USGS","LITTLE OTTER CREEK AT FERRISBURG, VT.",44.19810987,-73.2490117,"33","50","001",146.81,"04150402",57.1
"04282780","USGS","LEWIS CREEK AT NORTH FERRISBURG, VT.",44.24922015,-73.22845688,"33","50","001",117.6,"04150402",77.2
"04296000","USGS","BLACK RIVER AT COVENTRY, VT",44.8689363,-72.2701041,"33","50","019",710,"04150500",122
"05057000","USGS","SHEYENNE RIVER NR COOPERSTOWN, ND",47.43277097,-98.0275954,"38","38","039",1272.94,"09020203",6470
"05057200","USGS","BALDHILL CREEK NR DAZEY, ND",47.2291562,-98.1248189,"38","38","003",1331,"09020203",691
"05062500","USGS","WILD RICE RIVER AT TWIN VALLEY, MN",47.26555556,-96.2475,"27","27","107",1008.16,"09020108",934
"05064900","USGS","BEAVER CREEK NR FINLEY, ND",47.5947222,-97.7091667,"38","38","091",1170.08,"09020109",160
"05087500","USGS","MIDDLE RIVER AT ARGYLE, MN",48.3402552,-96.8164502,"27","27","089",829.93,"09020309",255
"05098700","USGS","HIDDEN ISLAND COULEE NR HANSBORO, ND",48.95278566,-99.4268044,"38","38","095",1615,"09020315",38
"05123400","USGS","WILLOW CREEK NR WILLOW CITY, ND",48.58777637,-100.441523,"38","38","049",1431.2,"09010004",1160
"05129115","USGS","VERMILION RIVER NR CRANE LAKE, MN",48.2646282,-92.5659935,"27","27","137",1180,"09030002",905
"05130500","USGS","STURGEON RIVER NEAR CHISHOLM, MN",47.6735376,-92.9001819,"27","27","137",1305.7,"09030005",180
"05131500","USGS","LITTLE FORK RIVER AT LITTLEFORK, MN",48.39577636,-93.5493266,"27","27","071",1083.59,"09030005",1700
"05132000","USGS","BIG FORK RIVER AT BIG FALLS, MN",48.1957849,-93.8071245,"27","27","071",1145.78,"09030006",1480
"05212700","USGS","PRAIRIE RIVER NEAR TACONITE, MN",47.3888277,-93.380757,"27","27","061",1294.81,"07010103",371
"05290000","USGS","LITTLE MINNESOTA RIVER NEAR PEEVER, SD",45.6158333,-96.8755556,"27","46","109",1016.73,"07020001",436
"05291000","USGS","WHETSTONE RIVER NEAR BIG STONE CITY, SD",45.2916316,-96.487557,"27","46","051",996.96,"07020001",398
"05293000","USGS","YELLOW BANK RIVER NEAR ODESSA, MN",45.2269094,-96.353665,"27","27","073",953.34,"07020001",459
"05317200","USGS","LITTLE COTTONWOOD RIVER NEAR COURTLAND, MN",44.2463534,-94.3388558,"27","27","013",788.46,"07020007",170
"05362000","USGS","JUMP RIVER AT SHELDON, WI",45.30802638,-90.956525,"55","55","107",1092.71,"07050004",576
"05376000","USGS","NORTH FORK WHITEWATER RIVER NEAR ELBA, MN",44.09163075,-92.0659959,"27","27","169",769.6,"07040003",101
"05383950","USGS","ROOT RIVER NEAR PILOT MOUND, MN",43.7846858,-92.0301573,"27","27","045",NA,"07040008",565
"05384000","USGS","ROOT RIVER NEAR LANESBORO, MN",43.7482971,-91.9773775,"27","27","045",791.32,"07040008",615
"05387440","USGS","Upper Iowa River at Bluffton, IA",43.40691316,-91.8990464,"19","19","191",945.5,"07060002",367
"05387500","USGS","Upper Iowa River at Decorah, IA",43.3048888,-91.7955429,"19","19","191",850,"07060002",511
"05389000","USGS","Yellow River near Ion, IA",43.11192665,-91.2651317,"19","19","005",661.87,"07060001",221
"05389400","USGS","Bloody Run Creek near Marquette, IA",43.04081747,-91.2065192,"19","19","043",624.82,"07060001",34.13
"05393500","USGS","SPIRIT RIVER AT SPIRIT FALLS, WI",45.44916667,-89.9791667,"55","55","069",1461.64,"07070001",81.6
"05399500","USGS","BIG EAU PLEINE RIVER AT STRATFORD, WI",44.8219098,-90.0795754,"55","55","073",1154.19,"07070002",224
"05407470","USGS","KICKAPOO RIVER AT STATE HIGHWAY 33 AT ONTARIO, WI",43.72166667,-90.5875,"55","55","123",849.93,"07070006",117
"05408000","USGS","KICKAPOO RIVER AT LA FARGE, WI",43.57414037,-90.6431861,"55","55","123",781.44,"07070006",266
"05411850","USGS","Turkey River near Eldorado, IA",43.0541879,-91.8090983,"19","19","065",890,"07060004",641
"05412400","USGS","Volga River at Littleport, IA",42.7538753,-91.3690252,"19","19","043",677,"07060004",348
"05412500","USGS","Turkey River at Garber, IA",42.7399884,-91.261799,"19","19","043",634.46,"07060004",1545
"05413500","USGS","GRANT RIVER AT BURTON, WI",42.72027778,-90.8191667,"55","55","043",606.25,"07060003",269
"05414000","USGS","PLATTE RIVER NEAR ROCKVILLE, WI",42.7311111,-90.6402778,"55","55","043",642.29,"07060003",142
"05415000","USGS","GALENA RIVER AT BUNCOMBE, WI",42.5136142,-90.3779052,"55","55","065",682.31,"07060005",125
"05420560","USGS","Wapsipinicon River near Elma, IA",43.2416088,-92.5330973,"19","19","089",1130.05,"07080102",95.2
"05420680","USGS","Wapsipinicon River near Tripoli, IA",42.83609117,-92.2574003,"19","19","017",986.42,"07080102",346
"05444000","USGS","ELKHORN CREEK NEAR PENROSE, IL",41.90280739,-89.696223,"17","17","195",657.85,"07090005",146
"05451210","USGS","South Fork Iowa River NE of New Providence, IA",42.3150833,-93.1520556,"19","19","083",943.97,"07080207",224
"05454000","USGS","Rapid Creek near Iowa City, IA",41.7000165,-91.4876684,"19","19","103",673.72,"07080209",25.3
"05458000","USGS","Little Cedar River near Ionia, IA",43.03328014,-92.5035435,"19","19","037",973.35,"07080201",306
"05464220","USGS","Wolf Creek near Dysart, IA",42.25152778,-92.2988889,"19","19","171",835,"07080205",299
"05466500","USGS","EDWARDS RIVER NEAR NEW BOSTON, IL",41.18697738,-90.9673663,"17","17","131",529.92,"07080104",445
"05467000","USGS","POPE CREEK NEAR KEITHSBURG, IL",41.12892328,-90.9193094,"17","17","131",524.07,"07080104",174
"05473450","USGS","Big Creek North of Mount Pleasant, IA",41.0069727,-91.5515497,"19","19","087",643,"07080107",58
"05487980","USGS","White Breast Creek near Dallas, IA",41.24663889,-93.2901667,"19","19","125",762.83,"07100008",333
"05488200","USGS","English Creek near Knoxville, IA",41.30055336,-93.0454805,"19","19","125",721.79,"07100009",90.1
"05489000","USGS","Cedar Creek near Bussey, IA",41.2190021,-92.9085332,"19","19","125",682.15,"07100009",374
"05494300","USGS","Fox River at Bloomfield, IA",40.7694656,-92.4187964,"19","19","051",755.57,"07110001",87.7
"05495000","USGS","Fox River at Wayland, MO",40.39241667,-91.5978889,"29","29","045",501.52,"07110001",400
"05495500","USGS","BEAR CREEK NEAR MARCELLINE, IL",40.1428237,-91.33737,"17","17","001",504.52,"07110001",349
"05498000","USGS","Middle Fabius River near Monticello, MO",40.09355556,-91.7355,"29","29","111",540.46,"07110002",393
"05500000","USGS","South Fabius River near Taylor, MO",39.89663889,-91.5801667,"29","29","127",482.91,"07110003",620
"05501000","USGS","North River at Palmyra, MO",39.817,-91.5460278,"29","29","127",473.7,"07110004",354
"05503800","USGS","Crooked Creek near Paris, MO",39.5848333,-91.9935,"29","29","137",650,"07110005",80
"05506100","USGS","Long Branch near Santa Fe, MO",39.3558733,-91.8343322,"29","29","137",624.59,"07110006",180
"05507600","USGS","Lick Creek at Perry, MO",39.4314296,-91.6762708,"29","29","173",623.63,"07110007",104
"05508805","USGS","Spencer Creek below Plum Creek near Frankford, MO",39.5204722,-91.34275,"29","29","173",485,"07110007",206
"05514500","USGS","Cuivre River near Troy, MO",39.00880556,-90.9775278,"29","29","113",450.27,"07110008",903
"05525500","USGS","SUGAR CREEK AT MILFORD, IL",40.6300362,-87.72391809,"17","17","075",622,"07120002",446
"05556500","USGS","BIG BUREAU CREEK AT PRINCETON, IL",41.3672222,-89.4977778,"17","17","011",555.39,"07130001",196
"05584500","USGS","LA MOINE RIVER AT COLMAR, IL",40.33032166,-90.8962451,"17","17","109",491.53,"07130010",655
"05585000","USGS","LA MOINE RIVER AT RIPLEY, IL",40.0247704,-90.6317947,"17","17","009",431.1,"07130010",1293
"05591550","USGS","WHITLEY CREEK NEAR ALLENVILLE, IL",39.5067003,-88.5275547,"17","17","139",617,"07140201",34.6
"05592050","USGS","ROBINSON CREEK NEAR SHELBYVILLE, IL",39.40587344,-88.8964628,"17","17","173",550,"07140201",93.1
"05592575","USGS","HICKORY CREEK NEAR BROWNSTOWN, IL",38.93698999,-88.95283849,"17","17","051",493.37,"07140202",44.2
"05593575","USGS","LITTLE CROOKED CREEK NEAR NEW MINDEN, IL",38.4417164,-89.416751,"17","17","189",414.12,"07140202",84.3
"05593900","USGS","EAST FORK SHOAL CREEK NEAR COFFEEN, IL",39.1486111,-89.3525,"17","17","135",574.76,"07140203",55.5
"05595730","USGS","RAYSE CREEK NEAR WALTONVILLE, IL",38.25388889,-89.0405556,"17","17","081",412,"07140106",88
"06036805","USGS","Firehole River at Old Faithful, YNP",44.4593333,-110.8222722,"30","56","029",7352,"10020007",39.4
"06036905","USGS","Firehole River near West Yellowstone MT",44.6201833,-110.8635028,"30","56","029",7050,"10020007",261
"06037500","USGS","Madison River near West Yellowstone, MT",44.6570722,-111.0679639,"30","30","031",6650,"10020007",435
"06043500","USGS","Gallatin River near Gallatin Gateway, MT",45.4973,-111.2707083,"30","30","031",5167.67,"10020008",819
"06073500","USGS","Dearborn River near Craig MT",47.199025,-112.0959056,"30","30","049",3800,"10030102",322
"06131000","USGS","Big Dry Creek near Van Norman MT",47.3494472,-106.3578167,"30","30","033",2330,"10040105",2551
"06137400","USGS","Big Sandy Cr at Res Bndry nr Rocky Boy MT",48.1724444,-109.8260111,"30","30","015",3830,"10050005",24.6
"06137570","USGS","Boxelder Creek near Rocky Boy MT",48.30185,-109.8443278,"30","30","041",3225,"10050005",48.3
"06187950","USGS","Soda Butte Cr nr Lamar Ranger Station YNP",44.86898889,-110.164775,"30","56","029",6630,"10070001",101
"06188000","USGS","Lamar River nr Tower Ranger Station YNP",44.92817778,-110.3942694,"30","56","029",6000,"10070001",668
"06191500","USGS","Yellowstone River at Corwin Springs MT",45.1121194,-110.7936667,"30","30","067",5079.09,"10070002",2616
"06209500","USGS","Rock Creek near Red Lodge MT",45.0861472,-109.3291889,"30","30","009",6400,"10070006",105
"06218500","USGS","WIND RIVER NEAR DUBOIS, WY",43.57856415,-109.7598835,"56","56","013",7188.71,"10080001",232
"06221400","USGS","DINWOODY CREEK ABOVE LAKES, NEAR BURRIS, WY",43.34616667,-109.4087778,"56","56","013",6500,"10080001",88.2
"06222700","USGS","CROW CREEK NEAR TIPPERARY, WY",43.57666667,-109.2622222,"56","56","013",8600,"10080001",30.2
"06224000","USGS","BULL LAKE CREEK ABOVE BULL LAKE, WY",43.1766111,-109.2025556,"56","56","013",5874,"10080001",187
"06228350","USGS","SF L WIND RIV AB WASHAKIE RES, NR FT WASHAKIE, WY",42.96828927,-109.037628,"56","56","013",6440,"10080002",90.3
"06260000","USGS","SOUTH FORK OWL CREEK NEAR ANCHOR, WY",43.66666667,-108.855,"56","56","017",6452.11,"10080007",87
"06265337","USGS","COTTONWOOD C AT HIGH ISLAND RNCH NR HAMILTON DOME",43.76263889,-108.6778889,"56","56","017",5677,"10080007",81.4
"06267400","USGS"," EAST FORK NOWATER CREEK NEAR COLTER, WYO.",43.9152343,-107.9300927,"56","56","043",4165,"10080007",149
"06278300","USGS","SHELL CREEK ABOVE SHELL CREEK RESERVOIR, WY",44.5080195,-107.4036886,"56","56","003",9050,"10080010",23.1
"06280300","USGS","SOUTH FORK SHOSHONE RIVER NEAR VALLEY, WY",44.20788889,-109.55525,"56","56","029",6200,"10080013",297
"06289000","USGS","Little Bighorn River at State Line nr Wyola MT",45.0071111,-107.6154083,"30","30","003",4350,"10080016",182
"06291500","USGS","Lodge Grass Cr ab Willow Cr diversion, nr Wyola MT",45.12648056,-107.5998917,"30","30","003",4170,"10080016",83.9
"06295250","USGS","Rosebud Creek near Colstrip MT",45.76715,-106.5698583,"30","30","087",3000,"10100003",800
"06311000","USGS","NORTH FORK POWDER RIVER NEAR HAZELTON, WY",44.02774228,-107.0808955,"56","56","019",8180,"10090201",24.5
"06332515","USGS","BEAR DEN CREEK NR MANDAREE, ND",47.7872369,-102.7685256,"38","38","053",1949.2,"10110101",74
"06339100","USGS","KNIFE RIVER AT MANNING, ND",47.2361259,-102.7699074,"38","38","025",2158.2,"10130201",205
"06339500","USGS","KNIFE RIVER NR GOLDEN VALLEY, ND",47.154453,-102.059892,"38","38","057",1848.5,"10130201",1230
"06344600","USGS","GREEN RIVER NR NEW HRADEC, ND",47.02779158,-103.0532355,"38","38","007",2512,"10130202",152
"06350000","USGS","CANNONBALL RIVER AT REGENT, ND",46.42667116,-102.5518303,"38","38","041",2424.6,"10130204",580
"06351200","USGS","CANNONBALL RIVER NR RALEIGH, ND",46.1269476,-101.333187,"38","38","037",1892,"10130204",1640
"06352000","USGS","CEDAR CREEK NR HAYNES, ND",46.15528136,-102.4757133,"38","38","001",2474.5,"10130205",553
"06353000","USGS","CEDAR CREEK NR RALEIGH, ND",46.09166988,-101.333742,"38","38","037",1882.8,"10130205",1750
"06354000","USGS","CANNONBALL RIVER AT BREIEN, ND",46.3761111,-100.9344444,"38","38","059",1674.9,"10130206",4100
"06356000","USGS","SOUTH FORK GRAND R AT BUFFALO SD",45.5761079,-103.5443583,"46","46","063",2839.6,"10130302",141
"06360500","USGS","MOREAU R NEAR WHITEHORSE,SD",45.2558171,-100.8429214,"46","46","041",1662.82,"10130306",4889
"06392900","USGS","BEAVER CREEK AT MALLO CAMP, NEAR FOUR CORNERS, WY",44.08498109,-104.060489,"56","56","045",6030,"10120107",10.2
"06402430","USGS","BEAVER CREEK NEAR PRINGLE, SD",43.58137177,-103.4765835,"46","46","033",4182,"10120109",45.6
"06404000","USGS","BATTLE CR NEAR KEYSTONE,SD",43.87164727,-103.3363029,"46","46","103",3798.15,"10120109",58.5
"06406000","USGS","BATTLE CR AT HERMOSA,SD",43.82804586,-103.1960211,"46","46","033",3292,"10120109",169
"06409000","USGS","CASTLE CR ABOVE DEERFIELD RES NEAR HILL CITY,SD",44.01359238,-103.8304784,"46","46","103",5922,"10120110",79.1
"06424000","USGS","ELK CR NEAR ROUBAIX,SD",44.2947073,-103.5968592,"46","46","081",4883,"10120111",21.5
"06430850","USGS","LITTLE SPEARFISH CREEK NEAR LEAD, SD",44.3496865,-103.9359118,"46","46","081",5017.79,"10120203",27.8
"06431500","USGS","SPEARFISH CR AT SPEARFISH,SD",44.48248388,-103.861592,"46","46","081",3642,"10120203",165
"06440200","USGS","SOUTH FORK BAD R NEAR COTTONWOOD,SD",43.9690175,-101.767229,"46","46","071",2244.44,"10140102",257
"06441500","USGS","BAD R NEAR FORT PIERRE,SD",44.32664897,-100.3843003,"46","46","117",1429.08,"10140102",3147
"06445980","USGS","WHITE CLAY CR NEAR OGLALA SD",43.14651127,-102.6833116,"46","46","102",3001.54,"10140201",375
"06446500","USGS","WHITE R NEAR INTERIOR,SD",43.69388346,-101.9326516,"46","46","071",2290.21,"10140202",4101
"06446700","USGS","BEAR IN THE LODGE CR NEAR WANBLEE,SD",43.53666558,-101.7985923,"46","46","071",2500.15,"10140202",423
"06447000","USGS","WHITE R NEAR KADOKA,SD",43.7524949,-101.5248665,"46","46","071",2123.65,"10140202",4960
"06447230","USGS","BLACK PIPE CREEK NR BELVIDERE, SD",43.75527266,-101.2279205,"46","46","095",2061,"10140202",273
"06447450","USGS","WHITE RIVER NEAR WHITE RIVER, SD",43.71304839,-100.6850534,"46","46","075",1771,"10140202",6209
"06447500","USGS","LITTLE WHITE R NEAR MARTIN,SD",43.1669155,-101.6327322,"46","46","007",3046,"10140203",313
"06450500","USGS","LITTLE WHITE R BELOW WHITE RIVER,SD",43.60138549,-100.7498608,"46","46","095",1914.19,"10140203",1549
"06452000","USGS","WHITE R NEAR OACOMA,SD",43.74832745,-99.5564948,"46","46","085",1378.4,"10140204",9915
"06453255","USGS","CHOTEAU CR NR AVON SD",42.9235524,-98.1063243,"46","46","009",1289.98,"10170101",594
"06453500","USGS","PONCA CREEK AT ANOKA, NEBR.",42.94305556,-98.8405556,"31","31","015",1630,"10150001",505
"06453600","USGS","Ponca Creek at Verdel, Nebr.",42.8111111,-98.1758333,"31","31","107",1232.92,"10150001",812
"06462500","USGS","PLUM CREEK AT MEADVILLE, NE",42.75361097,-99.8640082,"31","31","017",2026,"10150004",536
"06464500","USGS","KEYA PAHA R AT WEWELA,SD",43.0270872,-99.780921,"46","46","123",2050.8,"10150006",1129
"06464900","USGS","KEYA PAHA RIVER NEAR NAPER, NEBR.",42.9161111,-99.0969444,"31","31","015",1680,"10150006",1690
"06466500","USGS","Bazile Creek near Niobrara, Nebr.",42.7322222,-97.9225,"31","31","107",1243.32,"10170101",440
"06467600","USGS","JAMES RIVER NR MANFRED, ND",47.64605556,-99.8295278,"38","38","103",1607.03,"10160001",113
"06468170","USGS","JAMES RIVER NR GRACE CITY, ND",47.5580525,-98.862885,"38","38","031",1458.9,"10160001",1060
"06468250","USGS","JAMES RIVER ABOVE ARROWWOOD LAKE NR KENSAL, ND",47.3997189,-98.7976057,"38","38","031",1441,"10160001",1200
"06470800","USGS","BEAR CREEK NR OAKES, ND",46.2252439,-98.0717676,"38","38","021",1292.4,"10160003",357
"06471200","USGS","MAPLE R AT ND-SD STATE LINE",45.93886156,-98.4526004,"46","38","021",1366,"10160004",766
"06473700","USGS","SNAKE CR NEAR ASHTON SD",44.95914178,-98.5156502,"46","46","115",1265,"10160008",2659
"06474000","USGS","TURTLE CR NEAR TULARE SD",44.7349779,-98.5862077,"46","46","115",1300,"10160009",1125
"06474300","USGS","MEDICINE CR NEAR ZELL SD",44.7644217,-98.7039874,"46","46","115",1320,"10160009",205
"06477500","USGS","FIRESTEEL CR NEAR MOUNT VERNON,SD",43.77640219,-98.2456658,"46","46","035",1298.22,"10160011",588
"06478540","USGS","LITTLE VERMILLION R NEAR SALEM,SD",43.79464436,-97.3690086,"46","46","087",1510,"10170102",78.7
"06479215","USGS","BIG SIOUX RIVER NR FLORENCE,SD",45.18079549,-97.1861904,"46","46","051",1781.54,"10170202",68.3
"06601000","USGS","Omaha Creek at Homer, Nebr.",42.32166667,-96.4877778,"31","31","043",1080.45,"10230001",174
"06614800","USGS","MICHIGAN RIVER NEAR CAMERON PASS, CO",40.49609409,-105.8650119,"08","08","057",10390,"10180001",1.54
"06622700","USGS","NORTH BRUSH CREEK NEAR SARATOGA, WY",41.3702447,-106.5205815,"56","56","007",8020,"10180002",37.4
"06623800","USGS","ENCAMPMENT RIVER AB HOG PARK CR, NR ENCAMPMENT, WY",41.0235791,-106.824766,"56","56","007",8270,"10180002",72.7
"06632400","USGS","ROCK CREEK AB KING CANYON CANAL, NR ARLINGTON, WY",41.58524549,-106.2227908,"56","56","007",7790,"10180004",62.9
"06637750","USGS","ROCK CREEK ABOVE ROCK CREEK RESERVOIR, WY",42.5497222,-108.7752778,"56","56","013",8330,"10180006",9.2
"06717400","USGS","CHICAGO CREEK BLW DEVILS CANYON NR IDAHO SPRGS, CO",39.71637678,-105.5713883,"08","08","019",8040,"10190004",43.8
"06746095","USGS","JOE WRIGHT CREEK ABOVE JOE WRIGHT RESERVOIR, CO",40.5399822,-105.88279,"08","08","069",9990,"10190007",3.14
"06783500","USGS","MUD CREEK NEAR SWEETWATER, NE",41.03805556,-98.9927778,"31","31","019",2013.69,"10210005",707
"06784000","USGS","South Loup River at Saint Michael, Nebr.",41.0325,-98.7405556,"31","31","019",1922.04,"10210004",2320
"06798000","USGS","SOUTH FORK ELKHORN RIVER NEAR EWING, NE",42.24138889,-98.3983333,"31","31","089",1880,"10220001",292
"06803510","USGS","Little Salt Creek near Lincoln, Nebr.",40.89305556,-96.6816667,"31","31","109",1114.73,"10200203",43.6
"06803530","USGS","Rock Creek near Ceresco, Nebr.",41.0158333,-96.5441667,"31","31","109",1104.18,"10200203",120
"06814000","USGS","TURKEY C NR SENECA, KS",39.9477773,-96.1086149,"20","20","131",1037.53,"10240007",276
"06821080","USGS","Little Platte River near Plattsburg, MO",39.56777778,-94.407,"29","29","049",891,"10240012",65.4
"06846500","USGS","BEAVER C AT CEDAR BLUFFS, KS",39.98500557,-100.560148,"20","20","039",2520.33,"10250014",1680
"06847000","USGS","Beaver Creek near Beaver City, Nebr.",40.1200068,-99.8934566,"31","31","065",2164.84,"10250014",2080
"06847900","USGS","PRAIRIE DOG C AB KEITH SEBELIUS LAKE, KS",39.769727,-100.1006875,"20","20","137",2334.94,"10250015",590
"06853800","USGS","WHITE ROCK C NR BURR OAK, KS",39.89918,-98.2503276,"20","20","089",1600.84,"10250016",227
"06869950","USGS","MULBERRY C NR SALINA, KS",38.8444476,-97.6683699,"20","20","169",1208.42,"10260010",261
"06870300","USGS","GYPSUM C NR GYPSUM, KS",38.62726389,-97.4275583,"20","20","169",1232.16,"10260008",117
"06876700","USGS","SALT C NR ADA, KS",39.13916876,-97.8369849,"20","20","143",1247.18,"10260015",406
"06878000","USGS","CHAPMAN C NR CHAPMAN, KS",39.031109,-97.0402922,"20","20","041",1102.41,"10260008",300
"06879650","USGS","KINGS C NR MANHATTAN, KS",39.102075,-96.5946889,"20","20","161",1094.65,"10270101",4.44
"06885500","USGS","BLACK VERMILLION R NR FRANKFORT, KS",39.68194349,-96.4427888,"20","20","117",1106.91,"10270205",410
"06888000","USGS","VERMILLION C NR WAMEGO, KS",39.34777386,-96.2174979,"20","20","149",991.37,"10270102",243
"06888500","USGS","MILL C NR PAXICO, KS",39.06472106,-96.1691605,"20","20","197",961.64,"10270102",318
"06889140","USGS","SOLDIER C NR SOLDIER, KS",39.5658287,-95.962771,"20","20","085",1206.02,"10270102",16.9
"06889160","USGS","SOLDIER C NR CIRCLEVILLE, KS",39.4631449,-95.9505944,"20","20","085",1094.58,"10270102",49.3
"06889200","USGS","SOLDIER C NR DELIA, KS",39.23833024,-95.8885992,"20","20","085",940.18,"10270102",149
"06889500","USGS","SOLDIER C NR TOPEKA, KS",39.0994439,-95.7249828,"20","20","177",862.95,"10270102",290
"06891810","USGS","STRANGER C NR POTTER, KS",39.4477753,-95.162191,"20","20","005",913.92,"10270104",184
"06892000","USGS","STRANGER C NR TONGANOXIE, KS",39.1163912,-95.0108006,"20","20","103",800.95,"10270104",406
"06895000","USGS","Crooked River near Richmond, MO",39.33266389,-93.98,"29","29","177",706.34,"10300101",159
"06897950","USGS","Elk Creek near Decatur City, IA",40.72444235,-93.9382816,"19","19","053",924.7,"10280102",52.5
"06898400","USGS","Weldon River near Leon, IA",40.6958376,-93.6354975,"19","19","053",906.26,"10280102",104
"06899700","USGS","Shoal Creek near Braymer, MO",39.699525,-93.7958722,"29","29","025",700,"10280101",391
"06903400","USGS","Chariton River near Chariton, IA",40.95189005,-93.2598477,"19","19","117",917.9,"10280201",182
"06906150","USGS","Long Branch Creek near Atlanta, MO",39.89730556,-92.49325,"29","29","121",814.75,"10280203",23
"06906800","USGS","Lamine River near Otterville, MO",38.70225,-92.9788333,"29","29","053",652.87,"10300103",543
"06909500","USGS","Moniteau Creek near Fayette, MO",39.1208333,-92.5672222,"29","29","089",607.93,"10300102",75.1
"06910800","USGS","MARAIS DES CYGNES R NR READING, KS",38.56695524,-95.961657,"20","20","111",1048.32,"10290101",177
"06911490","USGS","SALT C AT LYNDON, KS",38.60139907,-95.6847068,"20","20","139",979.79,"10290101",97.8
"06911900","USGS","DRAGOON C NR BURLINGAME, KS",38.7091737,-95.8383205,"20","20","139",1016.06,"10290101",114
"06917000","USGS","L OSAGE R AT FULTON, KS",38.00892428,-94.7041264,"20","20","011",772.04,"10290103",314
"06917380","USGS","MARMATON R NR MARMATON, KS",37.81754116,-94.7919095,"20","20","011",780.66,"10290104",292
"06918460","USGS","Turnback Creek above Greenfield, MO",37.4023611,-93.8020278,"29","29","057",870.49,"10290106",252
"06919500","USGS","Cedar Creek near Pleasant View, MO",37.83420277,-93.8754918,"29","29","039",739.46,"10290106",420
"06921070","USGS","Pomme de Terre River near Polk, MO",37.68266667,-93.3703333,"29","29","167",872.61,"10290107",276
"06921200","USGS","Lindley Creek near Polk, MO",37.7504722,-93.2661944,"29","29","167",884.08,"10290107",112
"06927000","USGS","Maries River at Westphalia, MO",38.43180556,-91.9886111,"29","29","151",542.75,"10290111",257
"06928000","USGS","Gasconade River near Hazelgreen, MO",37.75920725,-92.4518383,"29","29","105",844.75,"10290201",1250
"06928300","USGS","Roubidoux Creek above Fort Leonard Wood, MO",37.6010833,-92.2338056,"29","29","215",961,"10290201",165
"06930000","USGS","Big Piney River near Big Piney, MO",37.66563889,-92.0499167,"29","29","169",800.99,"10290202",560
"06934000","USGS","Gasconade River near Rich Fountain, MO",38.38880556,-91.8198889,"29","29","151",553.7,"10290203",3180
"07010350","USGS","Meramec River at Cook Station, MO",37.8291472,-91.4374833,"29","29","055",864.67,"07140102",199
"07014500","USGS","Meramec River near Sullivan, MO",38.15852778,-91.1084722,"29","29","055",581.82,"07140102",1475
"07030392","USGS","WOLF RIVER AT LAGRANGE, TN",35.03258978,-89.246736,"47","47","047",363.4,"08010210",210
"07030500","USGS","WOLF RIVER AT ROSSVILLE, TN",35.05425748,-89.5411896,"47","47","047",300.74,"08010210",503
"07048800","USGS","Richland Creek at Goshen, AR",36.10416667,-94.0075,"05","05","143",NA,"11010001",138
"07049000","USGS","War Eagle Creek near Hindsville, AR",36.2,-93.855,"05","05","087",1168.06,"11010001",263
"07053250","USGS","Yocum Creek near Oak Grove, AR",36.45444444,-93.3561111,"05","05","015",1000,"11010001",52.8
"07053810","USGS","Bull Creek near Walnut Shade, MO",36.71775,-93.2068056,"29","29","213",712.4,"11010003",191
"07054080","USGS","Beaver Creek at Bradleyville, MO",36.77963889,-92.9072778,"29","29","213",802.76,"11010003",298
"07055646","USGS","Buffalo River near Boxley, AR",35.93888889,-93.405,"05","05","101",NA,"11010005",57.4
"07055875","USGS","Richland Creek near Witts Spring, AR",35.7972222,-92.9288889,"05","05","129",988.41,"11010005",67.4
"07056000","USGS","Buffalo River near St. Joe, AR",35.98305556,-92.7472222,"05","05","129",555.85,"11010005",829
"07056700","USGS","Buffalo River near Harriet, AR",36.06777778,-92.5775,"05","05","089",479.87,"11010005",1070
"07057500","USGS","North Fork River near Tecumseh, MO",36.62302778,-92.2481389,"29","29","153",584.67,"11010006",561
"07058000","USGS","Bryant Creek near Tecumseh, MO",36.6272222,-92.3060556,"29","29","153",573.56,"11010006",570
"07060710","USGS","North Sylamore Creek near Fifty Six, AR",35.99166667,-92.2138889,"05","05","137",434.99,"11010004",58.1
"07061270","USGS","East Fork Black River near Lesterville, MO",37.55255556,-90.8424444,"29","29","179",825.26,"11010007",52.2
"07064533","USGS","Current River above Akers, MO",37.37569444,-91.5528056,"29","29","203",770,"11010008",295
"07065200","USGS","Jacks Fork near Mountain View, MO",37.05616377,-91.6681988,"29","29","215",846,"11010008",185
"07065495","USGS","Jacks Fork at Alley Spring, MO",37.14816667,-91.4430833,"29","29","203",656.74,"11010008",298
"07066000","USGS","Jacks Fork at Eminence, MO",37.1540833,-91.3581667,"29","29","203",615.87,"11010008",398
"07068000","USGS","Current River at Doniphan, MO",36.62200294,-90.8476225,"29","29","181",321.42,"11010008",2038
"07071500","USGS","Eleven Point River near Bardley, MO",36.64869444,-91.2008333,"29","29","149",411.25,"11010011",793
"07072000","USGS","Eleven Point River near Ravenden Springs, AR",36.34638889,-91.1141667,"05","05","121",291.98,"11010011",1130
"07075000","USGS"," Middle Fork of Little Red River at Shirley, AR",35.65666667,-92.2927778,"05","05","141",483.12,"11010014",302
"07083000","USGS","HALFMOON CREEK NEAR MALTA, CO",39.17221259,-106.3891926,"08","08","065",9830,"11020001",23.5
"07086500","USGS","CLEAR CREEK ABOVE CLEAR CREEK RESERVOIR, CO.",39.0180493,-106.2778,"08","08","015",8885,"11020001",67.1
"07142300","USGS","RATTLESNAKE C NR MACKSVILLE, KS",37.8716826,-98.8762067,"20","20","185",1963.46,"11030009",697
"07144780","USGS","NF NINNESCAH R AB CHENEY RE, KS",37.8625129,-98.0139449,"20","20","155",1456.37,"11030014",713
"07145700","USGS","SLATE C AT WELLINGTON, KS",37.24946707,-97.4036569,"20","20","191",1157.24,"11030013",154
"07148350","USGS","Salt Fork Arkansas River nr Winchester, OK",36.96169595,-98.7823116,"40","40","151",1410.05,"11060002",856
"07148400","USGS","Salt Fork Arkansas River nr Alva, OK",36.81503056,-98.6481395,"40","40","151",1292.04,"11060002",982
"07149000","USGS","MEDICINE LODGE R NR KIOWA, KS",37.03891547,-98.4709092,"20","20","007",1286.99,"11060003",903
"07151500","USGS","CHIKASKIA R NR CORBIN, KS",37.12891225,-97.6019945,"20","20","191",1108,"11060005",794
"07167500","USGS","OTTER C AT CLIMAX, KS",37.70808736,-96.2236107,"20","20","073",977.76,"11070102",129
"07176950","USGS","Hominy Creek near Hominy, OK",36.4736793,-96.3789064,"40","40","113",750,"11070107",115
"07180500","USGS","CEDAR C NR CEDAR POINT, KS",38.19640618,-96.8244648,"20","20","017",1262.5,"11070202",110
"07184000","USGS","LIGHTNING C NR MCCUNE, KS",37.2811711,-95.0327428,"20","20","021",818.1,"11070205",197
"07186400","USGS","Center Creek near Carterville, MO",37.1406145,-94.3827238,"29","29","097",913.21,"11070207",232
"07188653","USGS","Big Sugar Creek near Powell, MO",36.6158611,-94.1822222,"29","29","119",971,"11070208",141
"07191222","USGS","Beaty Creek near Jay, OK",36.35535924,-94.7763388,"40","40","041",783.52,"11070209",59.1
"07195800","USGS","Flint Creek at Springtown, AR",36.2561111,-94.4336111,"05","05","007",1173.47,"11110103",14.2
"07196900","USGS","Baron Fork at Dutch Mills, AR",35.88,-94.4863889,"05","05","143",986.47,"11110103",40.6
"07197000","USGS","Baron Fork at Eldon, OK",35.92120037,-94.8385633,"40","40","021",701.14,"11110103",312
"07197360","USGS","Caney Creek near Barber, OK",35.7850906,-94.8563398,"40","40","021",NA,"11110103",90.2
"07208500","USGS","RAYADO CREEK NEAR CIMARRON, NM",36.37234444,-104.9692889,"35","35","007",6720,"11080002",65
"07222500","USGS","CONCHAS RIVER AT VARIADERO, NM",35.40282567,-104.4435938,"35","35","047",4430,"11080005",523
"07226500","USGS","UTE CREEK NEAR LOGAN, NM",35.43852778,-103.5257944,"35","35","021",3820,"11080007",1748
"07233500","USGS","Palo Duro Ck nr Spearman, TX",36.20225497,-101.305993,"48","48","195",2961.63,"11100104",1076
"07247250","USGS","Black Fork below Big Creek nr Page, OK",34.7737148,-94.5121685,"40","40","079",684,"11110105",94.3
"07249800","USGS","Lee Creek at Short, OK",35.5658333,-94.5319444,"05","40","135",NA,"11110104",236
"07249920","USGS","Little Lee Creek near Nicut, OK",35.57305556,-94.5569444,"05","40","135",NA,"11110104",102
"07249985","USGS","Lee Creek near Short, OK",35.5172222,-94.4641667,"05","40","135",NA,"11110104",420
"07250000","USGS","LEE CR NR VAN BUREN ARK",35.49453306,-94.4496592,"05","05","135",408.04,"11110104",426
"07250935","USGS","Jones Creek at Winfrey, AR",35.7358333,-94.1030556,"05","05","033",NA,"11110201",19.8
"07250965","USGS","Frog Bayou at Winfrey, AR",35.7222222,-94.1136111,"05","05","033",NA,"11110201",54.2
"07250974","USGS","Jack Creek near Winfrey, AR",35.70444444,-94.0916667,"05","05","033",NA,"11110201",6.9
"07257000","USGS","BIG PINEY CREEK NEAR DOVER, ARK",35.54952544,-93.1585084,"05","05","115",487.66,"11110202",274
"07257006","USGS","Big Piney Creek at Highway 164 near Dover, AR",35.5058333,-93.1813889,"05","05","115",NA,"11110202",306
"07260000","USGS","Dutch Creek at Waltreak, AR",34.98694444,-93.6130556,"05","05","149",NA,"11110204",81.4
"07261000","USGS","Cadron Creek near Guy, AR",35.2986111,-92.4038889,"05","05","045",371.68,"11110205",169
"07263295","USGS","Maumelle River at Williams Junction, AR",34.8761111,-92.7744444,"05","05","105",389.51,"11110207",46.1
"07290650","USGS","BAYOU PIERRE NR WILLOWS, MS",32.0186111,-90.8783333,"28","28","021",82.32,"08060203",654
"07291000","USGS","HOMOCHITTO RIVER AT EDDICETON, MS",31.50305556,-90.7775,"28","28","037",212.22,"08060205",181
"07292500","USGS","HOMOCHITTO RIVER AT ROSETTA, MS",31.3247222,-91.1094444,"28","28","037",94.39,"08060205",787
"07295000","USGS","BUFFALO RIVER NR WOODVILLE, MS",31.22694444,-91.2955556,"28","28","157",94.52,"08060206",180
"07299670","USGS","Groesbeck Ck at SH 6 nr Quanah, TX",34.35451979,-99.7403719,"48","48","197",1425.69,"11130101",303
"07301410","USGS","Sweetwater Ck nr Kelton, TX",35.47310419,-100.1209501,"48","48","483",2230,"11120302",297
"07301500","USGS","North Fork Red River near Carter, OK",35.16810838,-99.5073128,"40","40","009",1673.71,"11120302",2652
"07311900","USGS","Wichita Rv nr Seymour, TX",33.70036966,-99.3886905,"48","48","023",1152.7,"11130206",1874
"07315200","USGS","E Fk Little Wichita Rv nr Henrietta, TX",33.81287833,-98.0850406,"48","48","077",825.32,"11130209",178
"07315700","USGS","Mud Creek near Courtney, OK",34.00426516,-97.566968,"40","40","067",727.72,"11130201",574
"07325860","USGS","Willow Creek near Albert, OK",35.23339066,-98.4661702,"40","40","015",1340,"11130302",28.2
"07331300","USGS","Pennington Creek near Reagan, OK",34.3513333,-96.7103889,"40","40","069",858,"11130304",66.2
"07332390","USGS","Blue River near Connerville, OK",34.383426,-96.6005579,"40","40","069",892,"11140102",162
"07335700","USGS","Kiamichi River near Big Cedar, OK",34.63843685,-94.6127236,"40","40","079",886.97,"11140105",39.6
"07340300","USGS","Cossatot River near Vandervoort, AR",34.38,-94.2363889,"05","05","113",786,"11140109",89.6
"07342480","USGS","Middle Sulphur Rv at Commerce, TX",33.26650079,-95.9155217,"48","48","231",470.61,"11140301",44.1
"07344486","USGS","Brushy Ck at Scroggins, TX",32.9756785,-95.1843857,"48","48","159",343.9,"11140305",23.4
"07346045","USGS","Black Cypress Bayou at Jefferson, TX",32.7779173,-94.3574153,"48","48","315",171.47,"11140306",365
"07346140","USGS","Frazier Ck nr Linden, TX",33.05402005,-94.2901904,"48","48","067",228.7,"11140306",48
"07352800","USGS","GRAND BYU NR COUSHATTA, LA",32.04833333,-93.3022222,"22","22","081",136.26,"11140209",93.9
"07359610","USGS","Caddo River near Caddo Gap, AR",34.38277778,-93.6061111,"05","05","097",612,"08040102",136
"07360200","USGS","Little Missouri River near Langley, AR",34.31166667,-93.8997222,"05","05","109",727,"08040103",68.4
"07362100","USGS","Smackover Creek near Smackover, AR",33.37527778,-92.7766667,"05","05","139",97.56,"08040201",385
"07362500","USGS","Moro Creek near Fordyce, AR",33.7922222,-92.3333333,"05","05","013",201,"08040201",240
"07362587","USGS","Alum Fork Saline River near Reform, AR",34.7975,-92.9338889,"05","05","125",NA,"08040203",27
"07362656","USGS","Brushy Creek near Jessieville, AR",34.71925839,-92.9929551,"05","05","051",NA,"08040203",17.8
"07373000","USGS","Big Creek at Pollock, LA",31.5362873,-92.4084714,"22","22","043",76.69,"08040304",51
"07375000","USGS","Tchefuncte River near Folsom, LA",30.6160223,-90.2486954,"22","22","103",61.13,"08090201",103
"07375800","USGS","Tickfaw River at Liverpool, LA",30.93073559,-90.6734317,"22","22","091",203.8,"08070203",89.7
"07376000","USGS","Tickfaw River at Holden, LA",30.5038016,-90.6773163,"22","22","063",18.65,"08070203",247
"07376500","USGS","Natalbany River at Baptist, LA",30.50435795,-90.545924,"22","22","105",10.79,"08070203",79.5
"07377000","USGS","Amite River near Darlington, LA",30.8890694,-90.8445454,"22","22","091",145.36,"08070202",580
"08013000","USGS","Calcasieu River nr Glenmora, LA",30.99666667,-92.6736111,"22","22","079",110.77,"08080203",499
"08014500","USGS","Ouiska Chitto Creek Near Oberlin, LA",30.69875,-92.8931944,"22","22","003",46.24,"08080204",510
"08023080","USGS","Bayou Grand Cane near Stanley, LA",31.9627225,-93.9411609,"22","22","031",172.4,"12010004",72.5
"08023400","USGS","Bayou San Patricio near Benson, LA",31.8751667,-93.65851499,"22","22","031",208.67,"12010004",80.2
"08025500","USGS","Bayou Toro near Toro, LA",31.30712737,-93.5157295,"22","22","085",138,"12010005",148
"08031000","USGS","Cow Bayou nr Mauriceville, TX",30.18632045,-93.9085058,"48","48","361",-0.27,"12010005",83.3
"08033300","USGS","Piney Ck nr Groveton, TX",31.14046214,-95.0866021,"48","48","455",251.4,"12020002",79
"08033900","USGS","E Fk Angelina Rv nr Cushing, TX",31.86017169,-94.8232697,"48","48","401",291.06,"12020004",158
"08041500","USGS","Village Ck nr Kountze, TX",30.3979862,-94.2635215,"48","48","199",25.12,"12020006",860
"08050800","USGS","Timber Ck nr Collinsville, TX",33.55455428,-96.9472267,"48","48","097",640,"12030103",38.8
"08050840","USGS","Range Ck nr Collinsville, TX",33.52622016,-96.8072191,"48","48","181",621.08,"12030103",29.2
"08066200","USGS","Long King Ck at Livingston, TX",30.716306,-94.9588237,"48","48","373",100.12,"12030202",141
"08066300","USGS","Menard Ck nr Rye, TX",30.48138889,-94.7797222,"48","48","291",62.32,"12030202",152
"08070000","USGS","E Fk San Jacinto Rv nr Cleveland, TX",30.33659809,-95.1040999,"48","48","291",107.98,"12040103",325
"08070200","USGS","E Fk San Jacinto Rv nr New Caney, TX",30.14523056,-95.1246139,"48","48","339",0,"12040103",388
"08079600","USGS","DMF Brazos Rv at Justiceburg, TX",33.03843236,-101.1976302,"48","48","169",2222.47,"12050004",1466
"08082700","USGS","Millers Ck nr Munday, TX",33.32926607,-99.4650825,"48","48","447",1350,"12060101",104
"08086150","USGS","N Fk Hubbard Ck nr Albany, TX",32.7076192,-99.2750778,"48","48","417",1340.54,"12060105",39.3
"08086212","USGS","Hubbard Ck bl Albany, TX",32.73289717,-99.1406299,"48","48","417",1184.99,"12060105",613
"08086290","USGS","Big Sandy Ck abv Breckenridge, TX",32.64845613,-99.0045146,"48","48","429",1185.83,"12060105",280
"08088450","USGS","Big Cedar Ck nr Ivan, TX",32.8276216,-98.7239509,"48","48","429",1090,"12060201",97
"08095300","USGS","Middle Bosque Rv nr McGregor, TX",31.50933179,-97.365845,"48","48","309",530.51,"12060203",182
"08099300","USGS","Sabana Rv nr De Leon, TX",32.11402957,-98.6056067,"48","48","093",1209.59,"12070201",264
"08101000","USGS","Cowhouse Ck at Pidcoke, TX",31.2848902,-97.8850244,"48","48","099",736.71,"12070202",455
"08103900","USGS","S Fk Rocky Ck nr Briggs, TX",30.91156805,-98.0369676,"48","48","053",955.8,"12070203",33.3
"08104900","USGS","S Fk San Gabriel Rv at Georgetown, TX",30.6257499,-97.6911204,"48","48","491",687.72,"12070205",133
"08109700","USGS","Middle Yegua Ck nr Dime Box, TX",30.33937764,-96.9047037,"48","48","287",295.4,"12070102",236
"08130700","USGS","Spring Ck abv Twin Buttes Res nr San Angelo, TX",31.3309973,-100.600931,"48","48","451",1940,"12090102",688
"08131400","USGS","Pecan Ck nr San Angelo, TX",31.30905356,-100.4459254,"48","48","451",1930.72,"12090102",81.1
"08133250","USGS","N Concho Rv abv Sterling City, TX",31.8973574,-101.105113,"48","48","431",2360,"12090104",201
"08133900","USGS","Chalk Ck nr Water Valley, TX",31.64654097,-100.6906581,"48","48","451",2075,"12090104",26.9
"08134230","USGS","Grape Ck nr Grape Creek, TX",31.57515616,-100.5856544,"48","48","451",1950,"12090104",109
"08150800","USGS","Beaver Ck nr Mason, TX",30.64351548,-99.0958848,"48","48","319",1253.24,"12090204",215
"08152900","USGS","Pedernales Rv nr Fredericksburg, TX",30.22048147,-98.8697609,"48","48","171",1564.96,"12090206",369
"08155200","USGS","Barton Ck at SH 71 nr Oak Hill, TX",30.29631587,-97.925565,"48","48","453",737.04,"12090205",89.7
"08158700","USGS","Onion Ck nr Driftwood, TX",30.08298924,-98.0077859,"48","48","209",868.52,"12090205",124
"08158810","USGS","Bear Ck bl FM 1826 nr Driftwood, TX",30.15548749,-97.9400076,"48","48","209",860,"12090205",12.2
"08163500","USGS","Lavaca Rv at Hallettsville, TX",29.4432973,-96.9449819,"48","48","285",186.72,"12100101",108
"08164000","USGS","Lavaca Rv nr Edna, TX",28.95998449,-96.6863668,"48","48","239",14.1,"12100101",817
"08164300","USGS","Navidad Rv nr Hallettsville, TX",29.466908,-96.812756,"48","48","285",159.28,"12100102",332
"08164600","USGS","Garcitas Ck nr Inez, TX",28.8913759,-96.8191486,"48","48","469",29.16,"12100402",91.7
"08165300","USGS","N Fk Guadalupe Rv nr Hunt, TX",30.06409747,-99.3869916,"48","48","265",1800.1,"12100201",169
"08165500","USGS","Guadalupe Rv at Hunt, TX",30.06993074,-99.3217122,"48","48","265",1722.7,"12100201",288
"08166000","USGS","Johnson Ck nr Ingram, TX",30.10020707,-99.2831006,"48","48","265",1721.3,"12100201",114
"08171300","USGS","Blanco Rv nr Kyle, TX",29.97938297,-97.9100051,"48","48","209",620.12,"12100203",412
"08175000","USGS","Sandies Ck nr Westhoff, TX",29.2152475,-97.4494353,"48","48","123",178.27,"12100202",549
"08176900","USGS","Coleto Ck at Arnold Rd Crsg nr Schroeder, TX",28.86165308,-97.2263791,"48","48","175",100.43,"12100204",357
"08177300","USGS","Perdido Ck at FM 622 nr Fannin, TX",28.7516564,-97.3172142,"48","48","175",134.66,"12100204",28
"08178880","USGS","Medina Rv at Bandera, TX",29.72383537,-99.070035,"48","48","019",1189.46,"12100302",328
"08186500","USGS","Ecleto Ck nr Runge, TX",28.92025419,-97.7722221,"48","48","255",215.03,"12100303",239
"08189300","USGS","Medio Ck nr Beeville, TX",28.48305164,-97.656663,"48","48","025",163,"12100406",204
"08189500","USGS","Mission Rv at Refugio, TX",28.29195088,-97.2791593,"48","48","391",1,"12100406",690
"08190000","USGS","Nueces Rv at Laguna, TX",29.42856679,-99.997287,"48","48","463",1119.72,"12110101",737
"08190500","USGS","W Nueces Rv nr Brackettville, TX",29.48108333,-100.2391667,"48","48","271",1326.79,"12110102",694
"08194200","USGS","San Casimiro Ck nr Freer, TX",27.96501329,-98.9669678,"48","48","479",298,"12110105",469
"08195000","USGS","Frio Rv at Concan, TX",29.48856496,-99.7047756,"48","48","463",1203.71,"12110106",389
"08196000","USGS","Dry Frio Rv nr Reagan Wells, TX",29.50467576,-99.7814452,"48","48","463",1335.2,"12110106",126
"08198000","USGS","Sabinal Rv nr Sabinal, TX",29.4910644,-99.4928241,"48","48","463",1131.2,"12110106",206
"08198500","USGS","Sabinal Rv at Sabinal, TX",29.31430556,-99.4804722,"48","48","463",882.17,"12110106",241
"08200000","USGS","Hondo Ck nr Tarpley, TX",29.57003056,-99.2476889,"48","48","325",1169.1,"12110107",95.6
"08200700","USGS","Hondo Ck at King Waterhole nr Hondo, TX",29.39078876,-99.1514252,"48","48","325",897.87,"12110107",150
"08200977","USGS","Middle Verde Ck at SH 173 nr Bandera, TX",29.56777778,-99.0969444,"48","48","325",1195.55,"12110107",38.9
"08201500","USGS","Seco Ck at Miller Rh nr Utopia, TX",29.573284,-99.4030997,"48","48","325",1265.8,"12110107",45
"08202700","USGS","Seco Ck at Rowe Rh nr D'Hanis, TX",29.37078917,-99.2878185,"48","48","325",900.88,"12110107",168
"08210400","USGS","Lagarto Ck nr George West, TX",28.05973533,-98.0969482,"48","48","297",197.77,"12110111",155
"08267500","USGS","RIO HONDO NEAR VALDEZ, NM",36.5417972,-105.5565222,"35","35","055",7650,"13020101",36.2
"08269000","USGS","RIO PUEBLO DE TAOS NEAR TAOS, NM",36.43944444,-105.5036111,"35","35","055",7380,"13020101",66.6
"08271000","USGS","RIO LUCERO NEAR ARROYO SECO, NM",36.50828889,-105.5309639,"35","35","055",8051.44,"13020101",16.6
"08277470","USGS","RIO PUEBLO NR PENASCO, NM",36.16846667,-105.6027889,"35","35","055",7760,"13020101",101
"08302500","USGS","TESUQUE CREEK ABOVE DIVERSIONS NEAR SANTA FE, NM",35.73955556,-105.9049528,"35","35","049",7112,"13020101",11.7
"08321500","USGS","JEMEZ R BL EAST FORK NR JEMEZ SPRINGS, NM",35.82752335,-106.6480908,"35","35","043",6702.7,"13020202",173
"08324000","USGS","JEMEZ RIVER NEAR JEMEZ, NM",35.6619833,-106.7434389,"35","35","043",5622,"13020202",470
"08340500","USGS","ARROYO CHICO NR GUADALUPE, NM",35.59225,-107.1894444,"35","35","043",5921,"13020204",1390
"08343100","USGS","GRANTS CANYON AT GRANTS, NM",35.16087089,-107.8381131,"35","35","006",6450,"13020207",13
"08377900","USGS","RIO MORA NEAR TERRERO, NM",35.77711389,-105.6580278,"35","35","047",7890,"13060001",53.2
"08378500","USGS","PECOS RIVER NEAR PECOS, NM",35.70835,-105.6827028,"35","35","047",7502.94,"13060001",189
"08380500","USGS","GALLINAS CREEK NEAR MONTEZUMA, NM",35.65199444,-105.3188306,"35","35","047",6880,"13060001",84
"08382730","USGS","LOS ESTEROS CREEK ABOVE SANTA ROSA LAKE, NM",35.09505534,-104.6641554,"35","35","019",NA,"13060001",65.6
"08386505","USGS","RIO RUIDOSO AT RUIDOSO, NM",33.33653056,-105.7263083,"35","35","027",7160,"13060008",18.3
"08401200","USGS","SOUTH SEVEN RIVERS NR LAKEWOOD, NM",32.5886111,-104.4213889,"35","35","015",3280,"13060011",220
"08405105","USGS","DARK CANYON DRAW NEAR WHITES CITY, NM",32.29043056,-104.3491667,"35","35","015",3544,"13060011",327
"09035800","USGS","DARLING CREEK NEAR LEAL, CO.",39.8005418,-106.0264066,"08","08","049",8940,"14010001",8.78
"09035900","USGS","SOUTH FORK OF WILLIAMS FORK NEAR LEAL, CO",39.79581958,-106.0305734,"08","08","049",8950,"14010001",27.4
"09047700","USGS","KEYSTONE GULCH NEAR DILLON, CO.",39.59443117,-105.9725158,"08","08","117",9350,"14010002",9.14
"09052000","USGS","ROCK CREEK NEAR DILLON, CO.",39.72304159,-106.1286328,"08","08","117",8502.52,"14010002",15.8
"09052400","USGS","BOULDER CREEK AT UPPER STATION, NEAR DILLON, CO.",39.7280414,-106.1733569,"08","08","117",9460,"14010002",8.56
"09052800","USGS","SLATE CREEK AT UPPER STATION, NEAR DILLON, CO.",39.76304128,-106.1925244,"08","08","117",9040,"14010002",14.2
"09058500","USGS","PINEY RIVER BELOW PINEY LAKE, NEAR MINTURN, CO.",39.70804158,-106.4266968,"08","08","037",9145.25,"14010001",13
"09058800","USGS","EAST MEADOW CREEK NEAR MINTURN CO.",39.73165269,-106.4266969,"08","08","037",9455,"14010001",3.61
"09063200","USGS","WEARYMAN CREEK NEAR RED CLIFF, CO.",39.5222084,-106.3236384,"08","08","037",9280,"14010003",9.53
"09063400","USGS","TURKEY CREEK NEAR RED CLIFF, CO",39.52260278,-106.33655,"08","08","037",8918,"14010003",23.7
"09065500","USGS","GORE CREEK AT UPPER STATION, NEAR MINTURN, CO.",39.6258193,-106.2780823,"08","08","037",8600,"14010003",14.5
"09066000","USGS","BLACK GORE CREEK NEAR MINTURN, CO.",39.59637495,-106.2650264,"08","08","037",9150,"14010003",12.5
"09066100","USGS","BIGHORN CREEK NEAR MINTURN, CO",39.6399859,-106.2933605,"08","08","037",8625,"14010003",4.54
"09066150","USGS","PITKIN CREEK NEAR MINTURN, CO.",39.64359705,-106.3025273,"08","08","037",8525,"14010003",5.32
"09066200","USGS","BOOTH CREEK NEAR MINTURN, CO.",39.64831927,-106.3230833,"08","08","037",8325,"14010003",6.18
"09066300","USGS","MIDDLE CREEK NEAR MINTURN, CO.",39.6458193,-106.3822512,"08","08","037",8200,"14010003",5.96
"09066400","USGS","RED SANDSTONE CREEK NEAR MINTURN, CO.",39.68276376,-106.4014184,"08","08","037",9212,"14010003",7.34
"09074800","USGS","CASTLE CREEK ABOVE ASPEN, CO.",39.08748945,-106.8122608,"08","08","097",9100,"14010004",32.2
"09081600","USGS","CRYSTAL RIVER ABV AVALANCHE CRK, NEAR REDSTONE, CO",39.23263889,-107.2275,"08","08","097",6905,"14010004",167
"09107000","USGS","TAYLOR RIVER AT TAYLOR PARK, CO.",38.86027127,-106.5666966,"08","08","051",9340,"14020001",128
"09183000","USGS","COURTHOUSE WASH NEAR MOAB, UTAH",38.61275926,-109.5798402,"49","49","019",3980,"14030005",162
"09196500","USGS","PINE CREEK ABOVE FREMONT LAKE, WY",43.02705556,-109.7735278,"56","56","035",7450,"14040102",75.8
"09203000","USGS","EAST FORK RIVER NEAR BIG SANDY, WY",42.6725,-109.4216667,"56","56","035",7700,"14040102",79.2
"09210500","USGS","FONTENELLE C NR HERSCHLER RANCH, NR FONTENELLE, WY",42.09580556,-110.4160833,"56","56","023",6950,"14040101",152
"09217900","USGS","BLACKS FORK NEAR ROBERTSON, WY",40.95902778,-110.5797222,"56","49","043",8811.3,"14040107",130
"09223000","USGS","HAMS FORK BELOW POLE CREEK, NEAR FRONTIER, WY",42.11088889,-110.7094167,"56","56","023",7455,"14040107",128
"09235600","USGS","POT CREEK ABOVE DIVERSIONS, NEAR VERNAL, UTAH",40.768015,-109.3190219,"49","49","047",7550,"14040106",24.6
"09245000","USGS","ELKHEAD CREEK NEAR ELKHEAD, CO.",40.6696938,-107.2850592,"08","08","107",6845,"14050001",64.2
"09268500","USGS","NORTH FORK OF DRY FORK NEAR DRY FORK, UTAH",40.6427334,-109.810982,"49","49","047",8284.28,"14060002",8.62
"09278500","USGS","ROCK CREEK NEAR HANNA, UTAH",40.545501,-110.656274,"49","49","013",7620,"14060003",122
"09302450","USGS","LOST CREEK NEAR BUFORD, CO.",40.0502564,-107.468948,"08","08","103",7560,"14050005",21.5
"09303300","USGS","SOUTH FORK WHITE RIVER AT BUDGES RESORT, CO.",39.84331509,-107.3347778,"08","08","045",8980,"14050005",52.3
"09303500","USGS","SOUTH FORK WHITE RIVER NEAR BUFORD, CO.",39.9216455,-107.5517269,"08","08","103",7488,"14050005",152
"09306007","USGS","PICEANCE CREEK BELOW RIO BLANCO, CO.",39.8260846,-108.1831384,"08","08","103",6366,"14050006",177
"09306242","USGS","CORRAL GULCH NEAR RANGELY, CO",39.9202502,-108.4728719,"08","08","103",6580,"14050006",31.8
"09308500","USGS","MINNIE MAUD CREEK NR MYTON, UTAH",39.798574,-110.565991,"49","49","007",7190,"14060005",32
"09312600","USGS","WHITE R BL TABBYUNE CRK NR SOLDIER SUMMIT, UT",39.8757928,-111.0373878,"49","49","049",7230,"14060007",75.6
"09312800","USGS","WILLOW CREEK NEAR CASTLE GATE, UTAH",39.7769068,-110.7923812,"49","49","007",7000,"14060007",62.8
"09329050","USGS","SEVEN MILE CREEK NEAR FISH LAKE, UT",38.62775234,-111.6479647,"49","49","041",9200,"14070003",24
"09339900","USGS","EF SAN JUAN R AB SAND CREEK, NR PAGOSA SPGS, CO.",37.38972959,-106.8411509,"08","08","007",7940,"14080101",64.1
"09352900","USGS","VALLECITO CREEK NEAR BAYFIELD, CO.",37.47750126,-107.5436688,"08","08","067",7906.08,"14080101",72.5
"09378170","USGS","SOUTH CREEK ABOVE RESERVOIR NEAR MONTICELLO, UT",37.8466608,-109.3695625,"49","49","037",7170,"14080203",8.64
"09386900","USGS","RIO NUTRIA NEAR RAMAH, NM",35.28255278,-108.552975,"35","35","031",6860,"15020004",71.4
"09404115","USGS","HAVASU CREEK ABOVE THE MOUTH, NEAR SUPAI, AZ",36.30581618,-112.761305,"04","04","005",1800,"15010002",3020
"09404343","USGS","TRUXTON WASH NEAR VALENTINE, AZ",35.38416188,-113.6577185,"04","04","015",3770,"15010007",380.3
"09404450","USGS","EAST FORK VIRGIN RIVER NEAR GLENDALE, UT",37.3394272,-112.6043769,"49","49","025",5900,"15010008",74.2
"09408195","USGS","FORT PEARCE WASH NEAR ST. GEORGE, UT",37.00164939,-113.4688407,"49","49","053",2800,"15010009",1349
"09430500","USGS","GILA RIVER NEAR GILA, NM",33.06150278,-108.5373861,"35","35","017",4654.8,"15040001",1864
"09430600","USGS","MOGOLLON CREEK NEAR CLIFF, NM",33.16666667,-108.6497222,"35","35","017",5440,"15040001",69
"09442692","USGS","TULAROSA RIVER ABOVE ARAGON, NM",33.89144118,-108.5156166,"35","35","003",6750,"15040004",94
"09444200","USGS","BLUE RIVER NEAR CLIFTON, AZ.",33.29089456,-109.1961832,"04","04","011",4160,"15040004",506
"09447800","USGS","BONITA CREEK NEAR MORENCI, AZ.",32.95561778,-109.5311876,"04","04","009",3500,"15040005",302
"09484000","USGS","SABINO CREEK NEAR TUCSON, AZ",32.3147222,-110.8109167,"04","04","019",2720,"15050302",35.5
"09484550","USGS","CIENEGA CREEK NEAR SONOITA, AZ.",31.86555556,-110.57,"04","04","019",4180,"15050302",198
"09484600","USGS","PANTANO WASH NEAR VAIL, AZ.",32.0359141,-110.6775818,"04","04","019",3205,"15050302",457
"09494000","USGS","WHITE RIVER NEAR FORT APACHE, AZ.",33.73644059,-110.166767,"04","04","007",4365.99,"15060102",632
"09497800","USGS","CIBECUE CREEK NEAR CHRYSOTILE, AZ",33.8431053,-110.5576092,"04","04","007",3200,"15060103",295
"09497980","USGS","CHERRY CREEK NEAR GLOBE, AZ",33.8278262,-110.8562266,"04","04","007",3200,"15060103",200
"09505200","USGS","WET BEAVER CREEK NEAR RIMROCK, AZ",34.67474409,-111.672094,"04","04","025",4020,"15060202",111
"09505350","USGS","DRY BEAVER CREEK NEAR RIMROCK, AZ",34.72863146,-111.775708,"04","04","025",3694.38,"15060202",142
"09505800","USGS","WEST CLEAR CREEK NEAR CAMP VERDE, AZ",34.53863606,-111.6940356,"04","04","025",3630,"15060203",241
"09508300","USGS","WET BOTTOM CREEK NEAR CHILDS, AZ",34.16086787,-111.6929235,"04","04","007",2320,"15060203",36.4
"09510200","USGS","SYCAMORE CREEK NEAR FORT MCDOWELL, AZ",33.69421054,-111.541802,"04","04","013",1759.33,"15060203",164
"09512280","USGS","CAVE CREEK BLW COTTONWOOD CR NEAR CAVE CREEK, AZ.",33.88725977,-111.9540388,"04","04","013",2280,"15060106",82.7
"09513780","USGS","NEW RIVER NEAR ROCK SPRINGS, AZ.",33.97420168,-112.0990458,"04","04","013",2310,"15070102",68.3
"09535100","USGS","SAN SIMON WASH NEAR PISINIMO, AZ.",32.044237,-112.3709706,"04","04","019",1830,"15080101",569
"10023000","USGS","BIG CREEK NEAR RANDOLPH, UT",41.60994177,-111.2540876,"49","49","033",6410,"16010101",52.4
"10041000","USGS","THOMAS FORK NEAR WYOMING-IDAHO STATE LINE",42.40215256,-111.0249154,"49","56","023",6300,"16010102",113
"10148200","USGS","TIE FORK NEAR SOLDIER SUMMIT, UT",39.94995766,-111.2168391,"49","49","049",6120,"16020202",19.4
"10172875","USGS","GRANITE CREEK NEAR CALLAO, UT",39.77771867,-113.8616608,"49","49","023",6040,"16020306",8.65
"10173450","USGS","MAMMOTH CREEK ABV WEST HATCH DITCH, NEAR HATCH, UT",37.6227572,-112.5168773,"49","49","017",7300,"16030001",105
"10183900","USGS","EAST FORK SEVIER RIVER NEAR RUBYS INN, UT",37.57581584,-112.2657537,"49","49","017",7860,"16030002",71.6
"10205030","USGS","SALINA CREEK NEAR EMERY, UT",38.9119141,-111.5304654,"49","49","041",7000,"16030003",51.8
"10208500","USGS","OAK CREEK NR. FAIRVIEW, UTAH",39.67385065,-111.4090753,"49","49","039",6550,"16030004",11.8
"10224100","USGS","OAK CREEK ABOVE LITTLE CREEK, NEAR OAK CITY, UT",39.356346,-112.2327174,"49","49","027",6480,"16030005",5.58
"10234500","USGS","BEAVER RIVER NEAR BEAVER, UT",38.2805264,-112.5682713,"49","49","001",6200,"16030007",91
"10244950","USGS","STEPTOE CK NR ELY, NV",39.20153889,-114.689161,"32","32","033",7440,"16060008",11.1
"10259000","USGS","ANDREAS C NR PALM SPRINGS CA",33.7600211,-116.5500155,"06","06","065",800,"18100201",8.65
"10291500","USGS","BUCKEYE CK NR BRIDGEPORT, CA",38.23880787,-119.3259923,"32","06","051",6900,"16050301",44.1
"10295500","USGS","L WALKER RV NR BRIDGEPORT, CA",38.3607482,-119.4448868,"32","06","051",6790,"16050302",63.1
"10313400","USGS","MARYS RV BLW ORANGE BRG NR CHARLESTON, NV",41.54991275,-115.3067288,"32","32","007",5940,"16040101",72
"10321590","USGS","SUSIE CK AT CARLIN, NV",40.72602928,-116.0778547,"32","32","007",4910.6,"16040101",194
"10329500","USGS","MARTIN CK NR PARADISE VALLEY, NV",41.5346175,-117.4179047,"32","32","013",4648.9,"16040109",175.25
"10336580","USGS","UPPER TRUCKEE RV AT S UPPER TRUCKEE RD NR MEYERS",38.79629598,-120.0190718,"32","06","017",6490,"16050101",14.09
"10336645","USGS","GENERAL C NR MEEKS BAY CA",39.05185197,-120.1185209,"06","06","017",NA,"16050101",7.44
"10336660","USGS","BLACKWOOD C NR TAHOE CITY CA",39.10740708,-120.1621352,"06","06","061",6234.59,"16050101",11.2
"10336770","USGS","TROUT CK AT USFS RD 12N01 NR MEYERS, CA",38.8632405,-119.9582367,"32","06","017",6850,"16050101",7.4
"10343500","USGS","SAGEHEN C NR TRUCKEE CA",39.43157246,-120.2379793,"06","06","057",6320,"16050102",10.5
"10348850","USGS","GALENA CK AT GALENA CK STATE PARK, NV",39.35435414,-119.8585225,"32","32","031",6320,"16050102",7.69
"10353600","USGS","KINGS RV NR OROVADA, NV",41.90574167,-118.309125,"32","32","013",4680,"16040201",20.5
"10384000","USGS","CHEWAUCAN RIVER NEAR PAISLEY,OREG.",42.68459668,-120.5699722,"41","41","037",4430,"17120006",275
"11046300","USGS","SAN MATEO C NR SAN CLEMENTE CA",33.47085987,-117.4730986,"06","06","073",405,"18070301",80.8
"11098000","USGS","ARROYO SECO NR PASADENA CA",34.22222629,-118.1775727,"06","06","037",1397.88,"18070105",16
"11111500","USGS","SESPE CREEK NEAR WHEELER SPRINGS CA",34.5777657,-119.2573347,"06","06","111",3560,"18070102",49.5
"11114495","USGS","MATILIJA C NR RES NR MATILIJA HOT SPRINGS CA",34.5027693,-119.3573393,"06","06","111",1380,"18070101",47.8
"11117600","USGS","COYOTE CREEK NEAR OAK VIEW CA",34.41666158,-119.3706722,"06","06","111",577.37,"18070101",13.2
"11120500","USGS","SAN JOSE C NR GOLETA CA",34.45916286,-119.8090283,"06","06","083",95.61,"18060013",5.51
"11124500","USGS","SANTA CRUZ C NR SANTA YNEZ CA",34.5966563,-119.9087519,"06","06","083",783.38,"18060010",74
"11138500","USGS","SISQUOC R NR SISQUOC CA",34.83970289,-120.1682063,"06","06","083",624.3,"18060008",281
"11141150","USGS","ARROYO GRANDE AB PHOENIX C NR ARROYO GRANDE CA",35.18858618,-120.4351621,"06","06","079",NA,"18060006",13.5
"11141280","USGS","LOPEZ C NR ARROYO GRANDE CA",35.23553035,-120.4723857,"06","06","079",580,"18060006",20.9
"11143000","USGS","BIG SUR R NR BIG SUR CA",36.24579648,-121.7732872,"06","06","053",240,"18060006",46.5
"11148900","USGS","NACIMIENTO R BL SAPAQUE C NR BRYSON CA",35.78857918,-121.0938048,"06","06","079",800,"18060005",162
"11151300","USGS","SAN LORENZO C BL BITTERWATER C NR KING CITY CA",36.26802087,-121.066303,"06","06","053",431.48,"18060005",233
"11154700","USGS","CLEAR C NR IDRIA CA",36.36079387,-120.7607315,"06","06","069",2570,"18060002",14.5
"11160300","USGS","ZAYANTE C A ZAYANTE CA",37.08605874,-122.0469069,"06","06","087",390,"18060015",11.1
"11162500","USGS","PESCADERO C NR PESCADERO CA",37.26077707,-122.3288602,"06","06","081",62.3,"18050006",45.9
"11162570","USGS","SAN GREGORIO C A SAN GREGORIO CA",37.3257762,-122.3866404,"06","06","081",11.4,"18050006",50.9
"11169800","USGS","COYOTE C NR GILROY CA",37.07772286,-121.4943832,"06","06","085",790,"18050003",109
"11172945","USGS","ALAMEDA C AB DIV DAM NR SUNOL CA",37.4974356,-121.7735644,"06","06","001",930,"18050004",33.3
"11173200","USGS","ARROYO HONDO NR SAN JOSE CA",37.46160337,-121.769397,"06","06","085",783.86,"18050004",77.1
"11176400","USGS","ARROYO VALLE BL LANG CYN NR LIVERMORE CA",37.56132196,-121.6838389,"06","06","001",750,"18050004",130
"11180500","USGS","DRY C A UNION CITY CA",37.6060452,-122.0238504,"06","06","001",85.12,"18050004",9.39
"11203580","USGS","SF TULE R NR CHOLOLLO CAMPGROUND NR PORTERVILLE CA",36.04828125,-118.6542556,"06","06","107",3700,"18030006",20.1
"11204100","USGS","SF TULE R NR RESERVATION BNDRY NR PORTERVILLE CA",36.02411648,-118.8134258,"06","06","107",970,"18030006",95.8
"11226500","USGS","SAN JOAQUIN R A MILLER CROSSING CA",37.51049707,-119.1973476,"06","06","039",4570,"18040006",249
"11230500","USGS","BEAR C NR LAKE THOMAS A EDISON CA",37.3393863,-118.9734513,"06","06","019",7366.94,"18040006",52.5
"11237500","USGS","PITMAN C BL TAMARACK C CA",37.19855659,-119.2137328,"06","06","019",7020,"18040006",22.9
"11264500","USGS","MERCED R A HAPPY ISLES BRIDGE NR YOSEMITE CA",37.73131496,-119.5590514,"06","06","043",4030,"18040008",181
"11266500","USGS","MERCED R A POHONO BRIDGE NR YOSEMITE CA",37.71687138,-119.6662788,"06","06","043",3861.66,"18040008",321
"11281000","USGS","SF TUOLUMNE R NR OAKLAND RECREATION CAMP CA",37.82159266,-120.0129616,"06","06","109",2800,"18040009",87
"11282000","USGS","M TUOLUMNE R A OAKLAND RECREATION CAMP CA",37.82825915,-120.0115727,"06","06","109",2800,"18040009",73.5
"11283500","USGS","CLAVEY R NR BUCK MEADOWS CA",37.90048017,-120.0718517,"06","06","109",2374.08,"18040009",144
"11284400","USGS","BIG C AB WHITES GULCH NR GROVELAND CA",37.8418714,-120.1849103,"06","06","109",2561.79,"18040009",16.4
"11292500","USGS","CLARK FORK STANISLAUS R NR DARDANELLE CA",38.36380105,-119.8712915,"06","06","109",5507.3,"18040010",67.5
"11299600","USGS","BLACK C NR COPPEROPOLIS CA",37.96103615,-120.6152035,"06","06","009",NA,"18040010",14.4
"11371000","USGS","CLEAR C A FRENCH GULCH CA",40.6948699,-122.6366845,"06","06","089",1320.6,"18020154",115
"11381500","USGS","MILL C NR LOS MOLINOS CA",40.0546022,-122.0241541,"06","06","103",385,"18020156",131
"11409300","USGS","OREGON C A CAMPTONVILLE CA",39.4460031,-121.046343,"06","06","115",2230,"18020125",23
"11413320","USGS","DEADWOOD C NR STRAWBERRY VALLEY CA",39.54989055,-121.0944014,"06","06","115",3275,"18020125",3.16
"11413323","USGS","OWL GULCH NR STRAWBERRY VALLEY CA",39.5454461,-121.0952348,"06","06","115",3050,"18020125",2.07
"11431800","USGS","PILOT C AB STUMPY MEADOWS RES CA",38.8946257,-120.5682585,"06","06","017",4280,"18020128",11.7
"11451100","USGS","NF CACHE C A HOUGH SPRING NR CLEARLAKE OAKS CA",39.1654458,-122.6199862,"06","06","033",1840,"18020116",60.2
"11467200","USGS","AUSTIN C NR CAZADERO CA",38.5065797,-123.0697239,"06","06","097",40,"18010110",62.8
"11468000","USGS","NAVARRO R NR NAVARRO CA",39.17045608,-123.668069,"06","06","045",4.79,"18010108",303
"11468500","USGS","NOYO R NR FORT BRAGG CA",39.42822378,-123.7377917,"06","06","045",11.73,"18010108",106
"11468900","USGS","MATTOLE R NR ETTERSBURG CA",40.139309,-123.991423,"06","06","023",578.93,"18010107",70.9
"11472160","USGS","WILLITS C AB LK EMILY NR WILLITS CA",39.449329,-123.3980667,"06","06","045",1580,"18010103",3.72
"11473900","USGS","MF EEL R NR DOS RIOS CA",39.70626687,-123.3252913,"06","06","045",901.58,"18010104",745
"11475560","USGS","ELDER C NR BRANSCOMB CA",39.7295997,-123.6439073,"06","06","045",1391.08,"18010106",6.5
"11475800","USGS","SF EEL R A LEGGETT CA",39.8745957,-123.7205775,"06","06","045",691.32,"18010106",248
"11476600","USGS","BULL C NR WEOTT CA",40.351528,-124.0050423,"06","06","023",269.36,"18010106",28.1
"11478500","USGS","VAN DUZEN R NR BRIDGEVILLE CA",40.48041636,-123.890876,"06","06","023",358.18,"18010105",222
"11480390","USGS","MAD R AB RUTH RES NR FOREST GLEN CA",40.28431329,-123.3353034,"06","06","105",NA,"18010102",93.8
"11481200","USGS","LITTLE R NR TRINIDAD CA",41.0098479,-124.0814555,"06","06","023",17.62,"18010102",40.5
"11481500","USGS","REDWOOD C NR BLUE LAKE CA",40.90596479,-123.815335,"06","06","023",850,"18010102",67.7
"11482500","USGS","REDWOOD C A ORICK CA",41.2992896,-124.0511825,"06","06","023",5.16,"18010102",277
"11522500","USGS","SALMON R A SOMES BAR CA",41.3765154,-123.4770026,"06","06","093",482.97,"18010210",751
"11523200","USGS","TRINITY R AB COFFEE C NR TRINITY CENTER CA",41.1112571,-122.7055788,"06","06","105",2536.93,"18010211",149
"11525530","USGS","RUSH C NR LEWISTON CA",40.7245899,-122.8347458,"06","06","105",1837,"18010211",22.3
"11528700","USGS","SF TRINITY R BL HYAMPOM CA",40.6498627,-123.4942046,"06","06","105",1211.37,"18010212",764
"11532500","USGS","SMITH R NR CRESCENT CITY CA",41.7915026,-124.0761887,"06","06","015",79.26,"18010101",614
"12013500","USGS","WILLAPA RIVER NEAR WILLAPA, WA",46.65093418,-123.6526584,"53","53","049",3.57,"17100106",130
"12017000","USGS","NORTH RIVER NEAR RAYMOND, WA",46.8073184,-123.8507215,"53","53","027",7.39,"17100106",219
"12020000","USGS","CHEHALIS RIVER NEAR DOTY, WA",46.6173236,-123.277644,"53","53","041",0,"17100103",113
"12025000","USGS","NEWAUKUM RIVER NEAR CHEHALIS, WA",46.6201042,-122.945126,"53","53","041",0,"17100103",155
"12025700","USGS","SKOOKUMCHUCK RIVER NEAR VAIL, WA",46.77260276,-122.5940086,"53","53","067",0,"17100103",40
"12035000","USGS","SATSOP RIVER NEAR SATSOP, WA",47.0006512,-123.4948838,"53","53","027",0,"17100104",299
"12035450","USGS","BIG CREEK NEAR GRISDALE, WA",47.37425567,-123.6368365,"53","53","027",601,"17100104",9.57
"12039005","USGS","HUMPTULIPS RIVER BELOW HWY 101 NR HUMPTULIPS, WA",47.23147599,-123.974063,"53","53","027",90,"17100105",132
"12040500","USGS","QUEETS RIVER NEAR CLEARWATER, WA",47.5378588,-124.3157457,"53","53","031",14.5,"17100102",445
"12041200","USGS","HOH RIVER AT US HIGHWAY 101 NEAR FORKS, WA",47.80674726,-124.2510329,"53","53","031",163.64,"17100101",253
"12043000","USGS","CALAWAH RIVER NEAR FORKS, WA",47.96007697,-124.3929872,"53","53","009",201.58,"17100101",129
"12043300","USGS","HOKO RIVER NEAR SEKIU, WA",48.24146416,-124.3838328,"53","53","009",50,"17110021",51.2
"12044900","USGS","ELWHA RIVER ABOVE LAKE MILLS NR PORT ANGELES, WA",47.970089,-123.5907453,"53","53","009",0,"17110020",198
"12048000","USGS","DUNGENESS RIVER NEAR SEQUIM, WA",48.0142578,-123.1326773,"53","53","009",569.3,"17110020",156
"12054000","USGS","DUCKABUSH RIVER NEAR BRINNON, WA",47.68398059,-123.011551,"53","53","031",241.49,"17110018",66.5
"12056500","USGS","NF SKOKOMISH R BL STAIRCASE RPDS NR HOODSPORT, WA",47.51425666,-123.3298868,"53","53","045",762.26,"17110017",57.2
"12060500","USGS","SOUTH FORK SKOKOMISH RIVER NEAR UNION, WA",47.34036949,-123.2801586,"53","53","045",103.35,"17110017",76.3
"12073500","USGS","HUGE CREEK NEAR WAUNA, WA",47.38926205,-122.6990241,"53","53","053",113,"17110019",6.47
"12079000","USGS","DESCHUTES RIVER NEAR RAINIER, WA",46.85204488,-122.6687354,"53","53","067",348.77,"17110016",89.8
"12082500","USGS","NISQUALLY RIVER NEAR NATIONAL, WA",46.75260766,-122.0837194,"53","53","053",1450,"17110015",133
"12083000","USGS","MINERAL CREEK NEAR MINERAL, WA",46.74427397,-122.1445534,"53","53","041",1340,"17110015",75.2
"12092000","USGS","PUYALLUP RIVER NEAR ELECTRON, WA",46.9037164,-122.0351092,"53","53","053",1632.7,"17110014",92.8
"12094000","USGS","CARBON RIVER NEAR FAIRFAX, WA",47.02788105,-122.0326105,"53","53","053",1201.7,"17110014",78.9
"12095000","USGS","SOUTH PRAIRIE CREEK AT SOUTH PRAIRIE, WA",47.13954628,-122.0926135,"53","53","053",400,"17110014",79.5
"12096500","USGS","PUYALLUP RIVER AT ALDERTON, WA",47.18510115,-122.2295625,"53","53","053",NA,"17110014",438
"12097500","USGS","GREENWATER RIVER AT GREENWATER, WA",47.1534409,-121.6356543,"53","53","053",1727,"17110014",73.5
"12097850","USGS","WHITE RIVER BELOW CLEARWATER RIVER NR BUCKLEY, WA",47.1467703,-121.8601066,"53","53","033",NA,"17110014",375
"12114500","USGS","CEDAR RIVER BELOW BEAR CREEK NEAR CEDAR FALLS, WA",47.34205417,-121.5489858,"53","53","033",1880,"17110012",25.4
"12115000","USGS","CEDAR RIVER NEAR CEDAR FALLS, WA",47.3701073,-121.6251009,"53","53","033",1560,"17110012",40.7
"12115700","USGS","BOULDER CREEK NEAR CEDAR FALLS, WA",47.36621625,-121.6928821,"53","53","033",NA,"17110012",4.64
"12117000","USGS","TAYLOR CREEK NEAR SELLECK, WA",47.3864913,-121.8462217,"53","53","033",940,"17110012",17.2
"12141300","USGS","MIDDLE FORK SNOQUALMIE RIVER NEAR TANNER, WA",47.48593975,-121.6478809,"53","53","033",780,"17110010",154
"12142000","USGS","NF SNOQUALMIE RIVER NEAR SNOQUALMIE FALLS, WA",47.61482536,-121.7134437,"53","53","033",1130,"17110010",64
"12143400","USGS","SF SNOQUALMIE RIVER AB ALICE CREEK NEAR GARCIA, WA",47.4151086,-121.5873213,"53","53","033",1437.67,"17110010",41.6
"12143600","USGS","SF SNOQUALMIE RIVER AT EDGEWICK, WA",47.45260396,-121.7178847,"53","53","033",571.24,"17110010",65.9
"12144000","USGS","SF SNOQUALMIE RIVER AT NORTH BEND, WA",47.49288017,-121.7901109,"53","53","033",423.01,"17110010",81.7
"12145500","USGS","RAGING RIVER NEAR FALL CITY, WA",47.53982388,-121.9090047,"53","53","033",250,"17110010",30.6
"12147500","USGS","NORTH FORK TOLT RIVER NEAR CARNATION, WA",47.71232365,-121.7887272,"53","53","033",600,"17110010",39.9
"12157250","USGS","MISSION CREEK NEAR TULALIP, WA",48.05842935,-122.2673635,"53","53","061",20.3,"17110019",7.92
"12167000","USGS","NF STILLAGUAMISH RIVER NEAR ARLINGTON, WA",48.26149178,-122.0476407,"53","53","061",89.34,"17110008",262
"12175500","USGS","THUNDER CREEK NEAR NEWHALEM, WA",48.6726287,-121.0728964,"53","53","073",1220,"17110005",105
"12178100","USGS","NEWHALEM CREEK NEAR NEWHALEM, WA",48.66012536,-121.2476233,"53","53","073",1000,"17110005",26.9
"12182500","USGS","CASCADE RIVER AT MARBLEMOUNT, WA",48.5262307,-121.4154046,"53","53","057",330,"17110005",172
"12186000","USGS","SAUK RIVER AB WHITE CHUCK RIVER NR  DARRINGTON, WA",48.16872009,-121.4706723,"53","53","061",930,"17110006",152
"12189500","USGS","SAUK RIVER NEAR SAUK, WA",48.42455859,-121.5684634,"53","53","057",266,"17110006",714
"12201500","USGS","SAMISH RIVER NEAR BURLINGTON, WA",48.54594127,-122.3382169,"53","53","057",45,"17110002",87.8
"12201960","USGS","BRANNIAN CREEK AT S BAY DR NR WICKERSHAM, WA",48.66899978,-122.2801605,"53","53","073",330,"17110002",3.36
"12202300","USGS","OLSEN CREEK NEAR BELLINGHAM, WA",48.7512221,-122.3534976,"53","53","073",315,"17110002",3.78
"12202310","USGS","CARPENTER CREEK NEAR BELLINGHAM, WA",48.75399999,-122.354053,"53","53","073",320,"17110002",1.17
"12206900","USGS","RACEHORSE CREEK AT NORTH FORK ROAD NR KENDALL, WA",48.88484196,-122.1332075,"53","53","073",410,"17110004",10.5
"12207850","USGS","CLEARWATER CREEK NEAR WELCOME, WA",48.788451,-122.0229292,"53","53","073",1650,"17110004",18.5
"12209000","USGS","SF NOOKSACK RIVER NEAR WICKERSHAM, WA",48.6642793,-122.1334886,"53","53","073",385,"17110004",103
"12210000","USGS","SF NOOKSACK RIVER AT SAXON BRIDGE, WA",48.67761256,-122.1665454,"53","53","073",350,"17110004",129
"12303100","USGS","Flower Creek near Libby MT",48.34483889,-115.6065694,"30","30","053",2866,"17010101",11.2
"12332000","USGS","Middle Fork Rock Cr nr Philipsburg MT",46.1845694,-113.5015694,"30","30","039",5444.08,"17010202",121
"12354000","USGS","St. Regis River near St. Regis, MT",47.2967111,-115.122625,"30","30","061",2645,"17010204",304
"12358500","USGS","M F Flathead River near West Glacier MT",48.49551667,-114.0102083,"30","30","029",3128.72,"17010207",1125
"12369200","USGS","Swan River near Condon MT",47.4223833,-113.6709722,"30","30","063",4015,"17010211",69.1
"12374250","USGS","Mill Cr ab Bassoo Cr nr Niarada MT",47.82982778,-114.6978333,"30","30","089",3000,"17010212",19.6
"12375900","USGS","South Crow Creek near Ronan MT",47.4914361,-114.0266444,"30","30","047",3320,"17010212",7.61
"12377150","USGS","Mission Creek ab reservoir nr St. Ignatius MT",47.3228222,-113.9793806,"30","30","047",3460,"17010212",12.4
"12381400","USGS","South Fork Jocko River near Arlee MT",47.19555,-113.850736,"30","30","047",3970,"17010212",57.6
"12383500","USGS","Big Knife Creek near Arlee MT",47.1472611,-113.974475,"30","30","047",3720,"17010212",6.86
"12390700","USGS","Prospect Creek at Thompson Falls MT",47.5860611,-115.3551,"30","30","089",2382.4,"17010213",182
"12392155","USGS","LIGHTNING CREEK AT CLARK FORK ID",48.15166667,-116.1816667,"16","16","017",2093.66,"17010213",118
"12411000","USGS","NF COEUR D ALENE R AB SHOSHONE CK NR PRICHARD ID",47.7061111,-115.9791667,"16","16","079",2485,"17010301",335
"12413000","USGS","NF COEUR D ALENE RIVER AT ENAVILLE ID",47.5722,-116.2528,"16","16","079",2100,"17010301",895
"12413360","USGS","EF PINE CREEK ABV GILBERT CR NEAR PINEHURST ID",47.44027778,-116.1752778,"16","16","079",1960,"17010302",3.47
"12413875","USGS","St Joe River at Red Ives Ranger Station, ID",47.05602858,-115.3532001,"16","16","079",3710,"17010304",108
"12414500","USGS","ST JOE RIVER AT CALDER, ID",47.2744444,-116.1888889,"16","16","079",2175.51,"17010304",1025
"12439300","USGS","TONASKET CREEK AT OROVILLE, WA",48.94294189,-119.4136748,"53","53","047",975,"17020006",60.1
"12447383","USGS","METHOW RIVER ABOVE GOAT CREEK NEAR MAZAMA, WA",48.57425,-120.385861,"53","53","047",2040,"17020008",373
"12447390","USGS","ANDREWS CREEK NEAR MAZAMA, WA",48.8229245,-120.1459245,"53","53","047",4300,"17020008",22.1
"12448000","USGS","CHEWUCH RIVER AT WINTHROP, WA",48.4770898,-120.1864734,"53","53","047",1736.26,"17020008",525
"12448500","USGS","METHOW RIVER AT WINTHROP, WA",48.4734787,-120.1773063,"53","53","047",1718.09,"17020008",1007
"12451000","USGS","STEHEKIN RIVER AT STEHEKIN, WA",48.32958017,-120.6917668,"53","53","007",1098.5,"17020009",321
"12452800","USGS","ENTIAT RIVER NEAR ARDENVOIR, WA",47.81846178,-120.4231438,"53","53","007",1560.97,"17020010",203
"12452890","USGS","MAD RIVER AT ARDENVOIR, WA",47.7367943,-120.3686962,"53","53","007",1260,"17020010",92.4
"12456500","USGS","CHIWAWA RIVER NEAR PLAIN, WA",47.8373461,-120.6623161,"53","53","007",2100,"17020011",170
"12458000","USGS","ICICLE CREEK ABOVE SNOW CREEK NEAR LEAVENWORTH, WA",47.5409539,-120.7200872,"53","53","007",1450,"17020011",193
"12488500","USGS","AMERICAN RIVER NEAR NILE, WA",46.97761606,-121.168696,"53","53","077",2700,"17030002",78.9
"13010065","USGS","SNAKE RIVER AB JACKSON LAKE AT FLAGG RANCH WY",44.09888889,-110.6675,"16","56","039",6801.61,"17040101",486
"13011500","USGS","PACIFIC CREEK AT MORAN, WY",43.85105315,-110.5171505,"16","56","039",6720,"17040101",169
"13011900","USGS","BUFFALO FORK AB LAVA CREEK NR MORAN WY",43.83805556,-110.4408333,"16","56","039",6772.78,"17040101",323
"13016305","USGS","GRANITE C AB GRANITE C SUPPLEMENTAL, NR MOOSE, WY",43.60316667,-110.8058333,"56","56","039",6400,"17040103",14.9
"13023000","USGS","GREYS RIVER ABOVE RESERVOIR, NEAR ALPINE, WY",43.14305556,-110.9769444,"16","56","023",5729,"17040103",448
"13046680","USGS","BOUNDARY CREEK NR BECHLER RANGER STATION Y.N.P. WY",44.18527778,-111.0077778,"16","56","039",NA,"17040203",86.9
"13046995","USGS","FALL RIVER AB YELLOWSTONE CANAL NR SQUIRREL ID",44.06194444,-111.1519444,"16","16","043",5780,"17040203",323
"13077700","USGS","GEORGE CREEK NEAR YOST, UTAH",41.9185291,-113.4816691,"49","49","003",7000,"17040210",7.84
"13161500","USGS","BRUNEAU RV AT ROWLAND, NV",41.9332368,-115.6745268,"32","32","007",4500,"17050102",382
"13162225","USGS","JARBIDGE RV BLW JARBIDGE, NV",41.8904614,-115.4286816,"32","32","007",6050,"17050102",30.6
"13169500","USGS","BIG JACKS CREEK NR BRUNEAU ID",42.785,-115.9833333,"16","16","073",2810,"17050102",244
"13185000","USGS","BOISE RIVER NR TWIN SPRINGS ID",43.66805556,-115.7252778,"16","16","015",3340,"17050112",832
"13216500","USGS","NF MALHEUR R AB BEULAH RES NR BEULAH OR",43.9482139,-118.1743637,"41","41","045",3320,"17050116",355
"13235000","USGS","SOUTH FORK PAYETTE RIVER AT LOWMAN, ID",44.08527778,-115.6222222,"16","16","015",3770,"17050120",446
"13237920","USGS","MIDDLE FORK PAYETTE RIVER NR CROUCH ID",44.1086111,-115.9822222,"16","16","015",3040,"17050121",337
"13240000","USGS","LAKE FORK PAYETTE RIVER AB JUMBO CR NR MCCALL ID",44.9136111,-115.9972222,"16","16","085",5140,"17050123",48.9
"13288200","USGS","EAGLE CREEK ABOVE SKULL CREEK NEAR NEW BRIDGE, OR",44.8804379,-117.2537918,"41","41","001",2800,"17050203",156
"13296500","USGS","SALMON RIVER BL YANKEE FORK NR CLAYTON ID",44.2683333,-114.7327778,"16","16","037",5900,"17060201",807
"13309220","USGS","MF SALMON RIVER AT MF LODGE NR YELLOW PINE ID",44.7215194,-115.0143472,"16","16","085",4421,"17060205",1042
"13310199","USGS","MF SALMON RIVER AT MOUTH NR SHOUP, ID",45.2936111,-114.5963889,"16","16","059",3040,"17060206",2876
"13310700","USGS","SF SALMON RIVER NR KRASSEL RANGER STATION ID",44.9869444,-115.725,"16","16","085",3750,"17060208",330
"13313000","USGS","JOHNSON CREEK AT YELLOW PINE ID",44.96166667,-115.5,"16","16","085",4655.75,"17060208",218
"13331500","USGS","MINAM RIVER AT MINAM, OR",45.6198669,-117.7265892,"41","41","063",2540.48,"17060105",240
"13334450","USGS","ASOTIN CREEK BELOW CONFLUENCE NEAR ASOTIN, WA",46.2736111,-117.2913889,"53","53","003",1810,"17060103",104
"13334700","USGS","ASOTIN CREEK BELOW KEARNEY GULCH NEAR ASOTIN, WA",46.3262691,-117.1526605,"53","53","003",1090,"17060103",170
"13337000","USGS","LOCHSA RIVER NR LOWELL ID",46.1508333,-115.5872222,"16","16","049",1452.98,"17060303",1178
"13338500","USGS","SF CLEARWATER RIVER AT STITES ID",46.08638889,-115.9766667,"16","16","049",1311.99,"17060305",1168
"13339500","USGS","LOLO CREEK NR GREER ID",46.37166667,-116.1625,"16","16","049",1080,"17060306",243
"13340000","USGS","CLEARWATER RIVER AT OROFINO ID",46.4783333,-116.2575,"16","16","035",990.8,"17060306",5507
"13340600","USGS","NF CLEARWATER RIVER NR CANYON RANGER STATION ID",46.84055556,-115.621111,"16","16","035",1660,"17060307",1296
"14010000","USGS","SOUTH FORK WALLA WALLA RIVER NEAR MILTON,OREG.",45.8298571,-118.1699502,"41","41","059",2050,"17070102",63
"14020000","USGS","UMATILLA RIVER ABOVE MEACHAM CREEK, NR GIBBON, OR",45.71957668,-118.3232913,"41","41","059",1854.81,"17070103",131
"14020300","USGS","MEACHAM CREEK AT GIBBON, OR",45.6887429,-118.3566262,"41","41","059",1803.05,"17070103",176
"14036860","USGS","JOHN DAY R AT BLUE MTN HOT SPGS NR PRAIRIE CITY,OR",44.35793778,-118.5760531,"41","41","023",4200,"17070201",40.14
"14037500","USGS","STRAWBERRY CR AB SLIDE CR NR PRAIRIE CITY,OREG.",44.3415479,-118.65661,"41","41","023",4909.57,"17070201",7
"14046890","USGS","PINE CREEK NEAR CLARNO, OR",44.91040697,-120.4408632,"41","41","069",1340,"17070204",64.96
"14054500","USGS","BROWN CREEK NEAR LA PINE,OREG.",43.71289729,-121.8039176,"41","41","017",4370,"17070301",21
"14090350","USGS","JEFFERSON CREEK NEAR CAMP SHERMAN, OR",44.5715058,-121.6392245,"41","41","031",2780,"17070301",27.8
"14090400","USGS","WHITEWATER RIVER NEAR CAMP SHERMAN, OR",44.7190062,-121.6403407,"41","41","031",3240,"17070301",22.8
"14092750","USGS","SHITIKE CRK AT PETERS PASTURE, NR WARM SPRINGS, OR",44.75039516,-121.633397,"41","41","031",3580,"17070306",22.9
"14092885","USGS","SHITIKE CR BL WOLFORD CANYON NR WARM SPRGS,OREG.",44.7720626,-121.3053308,"41","41","031",1600,"17070306",75.8
"14095500","USGS","WARM SPRINGS RIVER NEAR SIMNASHO, OR",44.96708766,-121.4693975,"41","41","065",2525.94,"17070306",107
"14096300","USGS","MILL CREEK NR BADGER BUTTE, NR WARM SPRINGS, OR",44.86150588,-121.6275668,"41","41","065",3380,"17070306",26.8
"14096850","USGS","BEAVER CREEK BELOW QUARTZ CREEK, NR SIMNASHO, OR",44.9587272,-121.3942286,"41","41","065",2260,"17070306",145
"14101500","USGS","WHITE RIVER BELOW TYGH VALLEY,OREG.",45.24150927,-121.0950626,"41","41","065",870.15,"17070306",417
"14107000","USGS","KLICKITAT RIVER ABOVE WEST FORK NEAR GLENWOOD, WA",46.2648437,-121.245075,"53","53","077",2720,"17070106",151
"14137000","USGS","SANDY RIVER NEAR MARMOT, OR",45.3995642,-122.1373068,"41","41","005",0,"17080001",264
"14138800","USGS","BLAZED ALDER CREEK NEAR RHODODENDRON, OR",45.4526183,-121.8914684,"41","41","005",2540,"17080001",8.17
"14138870","USGS","FIR CREEK NEAR BRIGHTWOOD, OR",45.48011889,-122.0256385,"41","41","051",1480,"17080001",5.46
"14138900","USGS","NORTH FORK BULL RUN RIVER NEAR MULTNOMAH FALLS, OR",45.4942856,-122.0359167,"41","41","051",1060,"17080001",8.32
"14139800","USGS","SOUTH FORK BULL RUN RIVER NEAR BULL RUN, OR",45.444564,-122.1095292,"41","41","005",990,"17080001",15.7
"14141500","USGS","LITTLE SANDY RIVER NEAR BULL RUN, OR",45.41539777,-122.1714746,"41","41","005",720,"17080001",23.1
"14144800","USGS","MIDDLE FORK WILLAMETTE RIVER NR OAKRIDGE, OR",43.60178867,-122.4575474,"41","41","039",1560,"17090001",264
"14146500","USGS","SALMON CREEK NEAR OAKRIDGE,OREG.",43.76234574,-122.3728227,"41","41","039",1462.36,"17090001",117
"14147500","USGS","N FK OF M FK WILLAMETTE R NR OAKRIDGE, OR",43.7567902,-122.5053292,"41","41","039",1029.6,"17090001",246
"14150300","USGS","FALL CREEK NEAR LOWELL, OR",43.97068174,-122.638674,"41","41","039",844.42,"17090001",118
"14150800","USGS","WINBERRY CREEK NEAR LOWELL,OR",43.9142924,-122.6886762,"41","41","039",863.7,"17090001",43.9
"14152500","USGS","COAST FORK WILLAMETTE AT LONDON, OR",43.64151015,-123.0859089,"41","41","039",852.58,"17090002",72.1
"14154500","USGS","ROW RIVER ABOVE PITCHER CREEK, NEAR DORENA, OR",43.7359565,-122.8734019,"41","41","039",856.16,"17090002",211
"14158790","USGS","SMITH RIVER ABV SMITH R RESV,NR BELKNAP SPRNGS,OR",44.3345666,-122.0470074,"41","41","043",2610,"17090004",15.6
"14159200","USGS","SO FK MCKENZIE RIVER ABV COUGAR LAKE NR RAINBOW OR",44.047067,-122.2178245,"41","41","039",1709.51,"17090004",160
"14161100","USGS","BLUE RIVER BELOW TIDBITS CREEK, NR BLUE RIVER, OR",44.2179043,-122.2650676,"41","41","039",1386.9,"17090004",45.8
"14161500","USGS","LOOKOUT CREEK NEAR BLUE RIVER, OR",44.2095708,-122.256733,"41","41","039",1377.76,"17090004",24.1
"14163000","USGS","GATE CREEK AT VIDA,OREG.",44.1456825,-122.5720152,"41","41","039",764.56,"17090004",47.6
"14166500","USGS","LONG TOM RIVER NEAR NOTI, OR",44.04984478,-123.4262097,"41","41","039",389.05,"17090003",89.3
"14179000","USGS","BREITENBUSH R ABV FRENCH CR NR DETROIT, OR.",44.75262179,-122.1289648,"41","41","047",1573.95,"17090005",108
"14180300","USGS","BLOWOUT CREEK NEAR DETROIT, OR",44.65289999,-122.130908,"41","41","043",1840,"17090005",26
"14182500","USGS","LITTLE NORTH SANTIAM RIVER NEAR MEHAMA, OR",44.7915108,-122.5789738,"41","41","047",655.41,"17090005",112
"14185000","USGS","SOUTH SANTIAM RIVER BELOW CASCADIA, OR",44.39179225,-122.4975817,"41","41","043",775,"17090006",174
"14185900","USGS","QUARTZVILLE CREEK NEAR CASCADIA, OR",44.54012357,-122.4359155,"41","41","043",1050,"17090006",99.2
"14187000","USGS","WILEY CREEK NEAR FOSTER, OR",44.37234769,-122.6231384,"41","41","043",720,"17090006",51.8
"14193000","USGS","WILLAMINA CREEK NEAR WILLAMINA, OR",45.1428905,-123.4942756,"41","41","071",315,"17090008",64.7
"14198400","USGS","BULL CREEK NEAR WILHOIT, OR",44.9609,-122.385,"41","41","005",1660,"17090009",0.78
"14198500","USGS","MOLALLA R AB PC NR WILHOIT, OREG.",45.00956696,-122.480362,"41","41","005",791.35,"17090009",97
"14199704","USGS","NATE CREEK TRIBUTARY NEAR COLTON, OR",45.2052333,-122.4120018,"41","41","005",950,"17090009",0.61
"14216000","USGS","LEWIS RIVER ABOVE MUDDY RIVER NEAR COUGAR, WA",46.06039127,-121.984531,"53","53","059",1080,"17080002",227
"14216500","USGS","MUDDY RIVER BELOW CLEAR CREEK NEAR COUGAR, WA",46.0756688,-121.9986982,"53","53","059",1032.9,"17080002",135
"14219000","USGS","CANYON CREEK NEAR AMBOY, WA",45.9398339,-122.3170398,"53","53","011",520,"17080002",64.1
"14222500","USGS","EAST FORK LEWIS RIVER NEAR HEISSON, WA",45.8367809,-122.4662083,"53","53","011",356.8,"17080002",125
"14231000","USGS","COWLITZ RIVER AT RANDLE, WA",46.5319444,-121.9569444,"53","53","041",880,"17080004",541
"14232500","USGS","CISPUS RIVER NEAR RANDLE, WA",46.44705689,-121.8639783,"53","53","041",1221.6,"17080004",321
"14236200","USGS","TILTON RIVER AB BEAR CANYON CREEK NEAR CINEBAR, WA",46.5953843,-122.4595564,"53","53","041",600,"17080005",141
"14299800","USGS","NEHALEM RIVER NEAR VERNONIA, OR",45.80705586,-123.2831722,"41","41","009",640,"17100202",69.78
"14301000","USGS","NEHALEM RIVER NEAR FOSS, OR",45.7039986,-123.755405,"41","41","057",32.6,"17100202",667
"14301500","USGS","WILSON RIVER NEAR TILLAMOOK, OR",45.47593996,-123.7251209,"41","41","057",42.12,"17100203",161
"14303200","USGS","TUCCA CREEK NEAR BLAINE, OR.",45.32427635,-123.5465012,"41","41","057",1400,"17100203",3.09
"14305500","USGS","SILETZ RIVER AT SILETZ, OR",44.7151172,-123.8873348,"41","41","041",102.32,"17100204",202
"14306100","USGS","NORTH FORK ALSEA RIVER AT ALSEA, OR",44.3790098,-123.5956608,"41","41","003",272.31,"17100205",63
"14306340","USGS","EAST FORK LOBSTER CREEK NEAR ALSEA, OR.",44.24789909,-123.6364936,"41","41","039",680,"17100205",5.7
"14306400","USGS","FIVE RIVERS NR FISHER, OREG.",44.33734287,-123.8276107,"41","41","041",130,"17100205",114
"14306500","USGS","ALSEA RIVER NEAR TIDEWATER, OR",44.3859538,-123.831778,"41","41","041",48.16,"17100205",334
"14307580","USGS","LAKE CREEK NEAR DEADWOOD,OREG.",44.08262,-123.7859396,"41","41","039",178.86,"17100206",174
"14307620","USGS","SIUSLAW RIVER NEAR MAPLETON, OR",44.06234317,-123.8831659,"41","41","039",41,"17100206",588
"14308990","USGS","COW CREEK ABV GALESVILLE RES, NR AZALEA, OR.",42.82317665,-123.1258922,"41","41","019",1900,"17100302",64.7
"14309500","USGS","WEST FORK COW CREEK NEAR GLENDALE, OR",42.80400356,-123.6109071,"41","41","019",1018.48,"17100302",86.9
"14316495","USGS","BOULDER CREEK NEAR TOKETEE FALLS, OR",43.3034543,-122.5303237,"41","41","019",1640,"17100301",30.4
"14316700","USGS","STEAMBOAT CREEK NEAR GLIDE, OR",43.349842,-122.7289415,"41","41","019",1128.55,"17100301",227
"14318000","USGS","LITTLE RIVER AT PEEL, OR",43.2526179,-123.0261716,"41","41","019",828.33,"17100301",177
"14319830","USGS","SOUTH FORK HINKLE CREEK NEAR NONPAREIL, OR",43.4220637,-123.0395097,"41","41","019",1420,"17100303",4.17
"14319835","USGS","NORTH FORK HINKLE CREEK NEAR NONPAREIL, OR",43.4234526,-123.039232,"41","41","019",1420,"17100303",3.15
"14325000","USGS","SOUTH FORK COQUILLE RIVER AT POWERS, OR",42.89149904,-124.070652,"41","41","011",197.42,"17100305",169
"14328000","USGS","ROGUE RIVER ABOVE PROSPECT, OR",42.77484917,-122.4997585,"41","41","029",2620,"17100307",312
"14337800","USGS","ELK CREEK NEAR CASCADE GORGE,OREG.",42.7734586,-122.6719864,"41","41","029",1813.83,"17100307",78.8
"14353000","USGS","WEST FORK ASHLAND CREEK NEAR ASHLAND, OR",42.14874336,-122.7166989,"41","41","029",2961.75,"17100308",10.7
"14353500","USGS","EAST FORK ASHLAND CREEK NEAR ASHLAND, OR",42.1526323,-122.7094764,"41","41","029",2903.7,"17100308",8.14
"14362250","USGS","STAR GULCH NEAR RUCH, OR",42.15401355,-123.075323,"41","41","029",1667.04,"17100309",16
"14371500","USGS","GRAVE CREEK AT PEASE BRIDGE,NEAR PLACER,OREG.",42.6415096,-123.2122809,"41","41","029",2354.2,"17100310",22.1
"14400000","USGS","CHETCO RIVER NEAR BROOKINGS, OR",42.12344278,-124.1873107,"41","41","015",49.16,"17100312",271
